,fips,state_name,latitude,longtitude,hq_address,hospital_name,hospital_type,hq_city,hq_state
0,4013,Arizona,33.49549780000007,-112.06615689999995,650 E Indian School Rd,Phoenix VA Health Care System (AKA Carl T Hayden VA Medical Center),VA Hospital,Phoenix,AZ
1,4019,Arizona,32.181263400000034,-110.96588519999996,3601 S 6th Ave,Southern Arizona VA Health Care System,VA Hospital,Tucson,AZ
2,6019,California,36.77332350000006,-119.77974209999996,2615 E Clinton Ave,VA Central California Health Care System,VA Hospital,Fresno,CA
3,9009,Connecticut,41.28440040000004,-72.95761029999994,950 Campbell Ave,VA Connecticut Healthcare System - West Haven Campus (AKA West Haven VA Medical Center),VA Hospital,West Haven,CT
4,10003,Delaware,39.74020630000007,-75.60653249999996,1601 Kirkwood Hwy,Wilmington VA Medical Center,VA Hospital,Wilmington,DE
5,11001,District of Columbia,38.93068230000006,-77.01119479999994,50 Irving St Nw,Washington DC VA Medical Center,VA Hospital,Washington,DC
6,12001,Florida,29.636988900000063,-82.345254,1601 Sw Archer Rd,North Florida/South Georgia Veterans Health System - Malcom Randall VA Medical Center,VA Hospital,Gainesville,FL
7,16001,Idaho,43.621035,-116.1901845,500 W Fort St,Boise VA Medical Center,VA Hospital,Boise,ID
8,22017,Louisiana,32.50310080000003,-93.72168259999997,510 E Stoner Ave,Overton Brooks VA Medical Center,VA Hospital,Shreveport,LA
9,28121,Mississippi,32.32548710000003,-90.10530849999998,1030 River Oaks Dr,Merit Health River Oaks (FKA River Oaks Hospital - Jackson),Short Term Acute Care Hospital,Flowood,MS
10,29019,Missouri,38.93723540000008,-92.32884869999998,800 Hospital Dr,Harry S Truman Memorial Veterans Hospital,VA Hospital,Columbia,MO
11,35001,New Mexico,35.055193100000054,-106.5816425,1501 San Pedro Dr Se,New Mexico VA Health Care System - Raymond G Murphy VA Medical Center,VA Hospital,Albuquerque,NM
12,36001,New York,42.649612700000034,-73.77444039999995,113 Holland Ave,Albany Stratton VA Medical Center,VA Hospital,Albany,NY
13,36005,New York,40.86740320000007,-73.90640459999997,130 W Kingsbridge Rd,James J Peters VA Medical Center,VA Hospital,Bronx,NY
14,38017,North Dakota,46.90593280000007,-96.77453,2101 Elm St N,Fargo VA Health Care System,VA Hospital,Fargo,ND
15,41019,Oregon,43.22706920000008,-123.36505739999996,913 Nw Garden Valley Blvd,Roseburg VA Health Care System,VA Hospital,Roseburg,OR
16,42003,Pennsylvania,40.44626610000006,-79.96080739999996,4100 Allequippa St,VA Pittsburgh Healthcare System - University Drive,VA Hospital,Pittsburgh,PA
17,1001,Alabama,32.463778,-86.451938,124 S Memorial Dr,Prattville Baptist Hospital,Short Term Acute Care Hospital,Prattville,AL
18,1003,Alabama,30.51902650000005,-87.88830669999999,750 Morphy Ave,Thomas Hospital,Short Term Acute Care Hospital,Fairhope,AL
19,1003,Alabama,30.903945,-87.785172,1815 Hand Ave,North Baldwin Infirmary,Short Term Acute Care Hospital,Bay Minette,AL
20,1005,Alabama,31.88876410000006,-85.15635649999996,820 W Washington St,Medical Center Barbour,Short Term Acute Care Hospital,Eufaula,AL
21,1007,Alabama,32.95122340000006,-87.14813359999994,208 Pierson Ave,Bibb Medical Center,Short Term Acute Care Hospital,Centreville,AL
22,1009,Alabama,33.933302800000035,-86.49499529999997,150 Gilbreath Dr,St Vincents Blount,Critical Access Hospital,Oneonta,AL
23,1011,Alabama,32.146119,-85.713048,102 Conecuh Ave W,Bullock County Hospital,Short Term Acute Care Hospital,Union Springs,AL
24,1013,Alabama,31.829093900000032,-86.64627,29 L V Stabler Dr,Regional Medical Center of Central Alabama (FKA LV Stabler Memorial Hospital),Short Term Acute Care Hospital,Greenville,AL
25,1015,Alabama,33.6676,-85.825,301 E 18th St,Stringfellow Memorial Hospital,Short Term Acute Care Hospital,Anniston,AL
26,1015,Alabama,33.65639530000004,-85.82283519999999,400 E 10th St,Regional Medical Center Anniston (FKA Northeast Alabama Regional Medical Center - Anniston),Short Term Acute Care Hospital,Anniston,AL
27,1017,Alabama,32.82464780000004,-85.16859339999996,4800 48th St,East Alabama Medical Center - Lanier,Short Term Acute Care Hospital,Valley,AL
28,1019,Alabama,34.1627,-85.6513,400 Northwood Dr,Cherokee Medical Center,Short Term Acute Care Hospital,Centre,AL
29,1025,Alabama,31.694274902000075,-87.77594757099996,295 S Jackson St,Grove Hill Memorial Hospital,Short Term Acute Care Hospital,Grove Hill,AL
30,1025,Alabama,31.53119470000007,-87.895053,220 Hospital Dr,Jackson Medical Center,Short Term Acute Care Hospital,Jackson,AL
31,1027,Alabama,33.27714720000006,-85.823822,83825 Highway 9,Clay County Hospital,Short Term Acute Care Hospital,Ashland,AL
32,1031,Alabama,31.318647,-85.855114,400 N Edwards St,Medical Center Enterprise,Short Term Acute Care Hospital,Enterprise,AL
33,1033,Alabama,34.744969,-87.675383,201 W Avalon Ave,North Alabama Shoals Hospital (FKA Shoals Hospital),Short Term Acute Care Hospital,Muscle Shoals,AL
34,1035,Alabama,31.43097810000006,-86.94082129999998,101 Crestview Ave,Evergreen Medical Center,Short Term Acute Care Hospital,Evergreen,AL
35,1039,Alabama,31.296297800000048,-86.49476239999996,849 S Three Notch St,Andalusia Regional Hospital (AKA Andalusia Health),Short Term Acute Care Hospital,Andalusia,AL
36,1039,Alabama,31.291985200000056,-86.25420619999994,702 N Main St,Mizell Memorial Hospital,Short Term Acute Care Hospital,Opp,AL
37,1041,Alabama,31.69335290000004,-86.26509409999994,101 Hospital Dr,Crenshaw Community Hospital,Short Term Acute Care Hospital,Luverne,AL
38,1043,Alabama,34.20758660000007,-86.87485309999994,1912 Alabama Hwy 157,Cullman Regional Medical Center,Short Term Acute Care Hospital,Cullman,AL
39,1045,Alabama,31.451328,-85.632075,126 Hospital Ave,Dale Medical Center,Short Term Acute Care Hospital,Ozark,AL
40,1047,Alabama,32.42927220000007,-87.056025,1015 Medical Center Pkwy,Vaughan Regional Medical Center,Short Term Acute Care Hospital,Selma,AL
41,1049,Alabama,34.441975300000024,-85.75501379999997,200 Medical Center Dr,Dekalb Regional Medical Center,Short Term Acute Care Hospital,Fort Payne,AL
42,1051,Alabama,32.534053,-85.912363,805 Friendship Rd,Community Hospital,Short Term Acute Care Hospital,Tallassee,AL
43,1051,Alabama,32.55237870000008,-86.18666969999998,500 Hospital Dr,Elmore Community Hospital,Short Term Acute Care Hospital,Wetumpka,AL
44,1053,Alabama,31.1249,-87.0712,1301 Belleville Ave,DW McMillan Memorial Hospital,Short Term Acute Care Hospital,Brewton,AL
45,1053,Alabama,31.016625300000044,-87.47634889999995,401 Medical Park Dr,Atmore Community Hospital,Short Term Acute Care Hospital,Atmore,AL
46,1055,Alabama,34.00740220000006,-85.96757189999994,1007 Goodyear Ave,Gadsden Regional Medical Center,Short Term Acute Care Hospital,Gadsden,AL
47,1055,Alabama,34.004403,-86.003626,600 S 3rd St,Riverview Regional Medical Center,Short Term Acute Care Hospital,Gadsden,AL
48,1057,Alabama,33.70802660000004,-87.82421789999995,1653 Temple Ave N,Fayette Medical Center (FKA Weimer Medical Center),Short Term Acute Care Hospital,Fayette,AL
49,1059,Alabama,34.51077260000005,-87.71834709999996,15155 Highway 43,Russellville Hospital,Short Term Acute Care Hospital,Russellville,AL
50,1059,Alabama,34.4575,-88.1477,211 Hospital Rd,Red Bay Hospital,Critical Access Hospital,Red Bay,AL
51,1061,Alabama,31.048774,-85.890977,1200 W Maple Ave,Wiregrass Medical Center,Short Term Acute Care Hospital,Geneva,AL
52,1063,Alabama,32.8421,-87.89,509 Wilson Ave,Greene County Hospital,Short Term Acute Care Hospital,Eutaw,AL
53,1065,Alabama,32.695544400000074,-87.58690769999998,508 Greene St,Hale County Hospital,Short Term Acute Care Hospital,Greensboro,AL
54,1069,Alabama,31.23790680000008,-85.456757,4370 W Main St,Flowers Hospital,Short Term Acute Care Hospital,Dothan,AL
55,1069,Alabama,31.219711500000077,-85.39295439999995,1108 Ross Clark Cir,Southeast Health (FKA Southeast Alabama Medical Center),Short Term Acute Care Hospital,Dothan,AL
56,1071,Alabama,34.6617,-86.0466,380 Woods Cove Rd,Highlands Medical Center,Short Term Acute Care Hospital,Scottsboro,AL
57,1073,Alabama,33.50718120000005,-86.78891109999995,810 Saint Vincents Dr,St Vincents Birmingham,Short Term Acute Care Hospital,Birmingham,AL
58,1073,Alabama,33.49840210000008,-86.84701659999996,701 Princeton Ave Sw,Princeton Baptist Medical Center,Short Term Acute Care Hospital,Birmingham,AL
59,1073,Alabama,33.43277550000005,-86.71884469999998,3690 Grandview Pkwy,Grandview Medical Center (FKA Trinity Medical Center),Short Term Acute Care Hospital,Birmingham,AL
60,1073,Alabama,33.596457,-86.66765019999997,50 Medical Park Dr E,St Vincents East (FKA Medical Center East),Short Term Acute Care Hospital,Birmingham,AL
61,1073,Alabama,33.503575400000045,-86.80245749999995,1720 University Blvd,UAB Callahan Eye Hospital,Short Term Acute Care Hospital,Birmingham,AL
62,1033,Alabama,34.7464,-87.6989,1300 S Montgomery Ave,Helen Keller Hospital,Short Term Acute Care Hospital,Sheffield,AL
63,1073,Alabama,33.50661760000003,-86.80319309999999,1802 6th Ave S,UAB Hospital,Short Term Acute Care Hospital,Birmingham,AL
64,1073,Alabama,33.37227750000005,-86.99061769999997,995 9th Ave Sw,Medical West Hospital,Short Term Acute Care Hospital,Bessemer,AL
65,1073,Alabama,33.50412060000008,-86.80155489999999,700 19th St S,Birmingham VA Medical Center,VA Hospital,Birmingham,AL
66,1073,Alabama,33.47023830000006,-86.8069698,2010 Brookwood Medical Ctr Dr,Brookwood Baptist Medical Center (FKA Brookwood Medical Center),Short Term Acute Care Hospital,Birmingham,AL
67,1077,Alabama,34.80439390000004,-87.65094529999999,1701 Veterans Dr,North Alabama Medical Center (FKA Eliza Coffee Memorial Hospital),Short Term Acute Care Hospital,Florence,AL
68,1079,Alabama,34.4828,-87.286,202 Hospital St,Lawrence Medical Center,Short Term Acute Care Hospital,Moulton,AL
69,1081,Alabama,32.640162900000064,-85.40375059999997,2000 Pepperell Pkwy,East Alabama Medical Center - Opelika,Short Term Acute Care Hospital,Opelika,AL
70,1083,Alabama,34.80426070000004,-86.979177,700 W Market St,Athens-Limestone Hospital,Short Term Acute Care Hospital,Athens,AL
71,1089,Alabama,34.721046,-86.581799,101 Sivley Rd SW,Huntsville Hospital,Short Term Acute Care Hospital,Huntsville,AL
72,1089,Alabama,34.69392790000006,-86.57193239999998,1 Hospital Dr,Crestwood Medical Center,Short Term Acute Care Hospital,Huntsville,AL
73,1091,Alabama,32.384584,-87.91165,105 Us Highway 80 E,Whitfield Regional Hospital (FKA Bryan W Whitfield Memorial Hospital),Short Term Acute Care Hospital,Demopolis,AL
74,1093,Alabama,33.930256100000065,-87.82442579999997,1530 Us Highway 43,Northwest Medical Center,Short Term Acute Care Hospital,Winfield,AL
75,1093,Alabama,34.12679950000006,-87.99146519999994,1256 Military St S,North Mississippi Medical Center - Hamilton,Short Term Acute Care Hospital,Hamilton,AL
76,1095,Alabama,34.22159,-86.160495,2505 Us Highway 431,Marshall Medical Center South,Short Term Acute Care Hospital,Boaz,AL
77,1097,Alabama,30.707287500000064,-88.09856279999997,2451 USA Medical Center Dr,USA Health University Hospital (FKA University of South Alabama Medical Center),Short Term Acute Care Hospital,Mobile,AL
78,1097,Alabama,30.67828170000007,-88.19855229999996,6801 Airport Blvd,Providence Hospital,Short Term Acute Care Hospital,Mobile,AL
79,1097,Alabama,30.698862500000075,-88.07942519999995,5 Mobile Infirmary Cir,Mobile Infirmary,Short Term Acute Care Hospital,Mobile,AL
80,1097,Alabama,30.68523360000006,-88.13171109999996,3719 Dauphin St,Springhill Medical Center,Short Term Acute Care Hospital,Mobile,AL
81,1097,Alabama,30.69745120000005,-88.07795869999995,1700 Center St,USA Childrens & Womens Hospital,Childrens Hospital,Mobile,AL
82,1099,Alabama,31.498257,-87.32068159999994,2016 S Alabama Ave,Monroe County Hospital,Short Term Acute Care Hospital,Monroeville,AL
83,1101,Alabama,32.37622840000006,-86.17482959999995,400 Taylor Rd,Baptist Medical Center East,Short Term Acute Care Hospital,Montgomery,AL
84,1101,Alabama,32.376919300000054,-86.24390859999994,215 Perry Hill Rd,Central Alabama Veterans Health Care System - West Campus,VA Hospital,Montgomery,AL
85,1101,Alabama,32.3269,-86.271,2105 E South Blvd,Baptist Medical Center South,Short Term Acute Care Hospital,Montgomery,AL
86,1101,Alabama,32.36708310000006,-86.28534919999998,1725 Pine St,Jackson Hospital,Short Term Acute Care Hospital,Montgomery,AL
87,1103,Alabama,34.59041350000007,-86.972417,1201 7th St SE,Decatur Morgan Hospital - Decatur Campus (FKA Decatur General Hospital),Short Term Acute Care Hospital,Decatur,AL
88,1109,Alabama,31.78114970000007,-85.94490869999998,1330 Highway 231 S,Troy Regional Medical Center,Short Term Acute Care Hospital,Troy,AL
89,1113,Alabama,32.50808450000005,-85.00867139999997,4401 Riverchase Dr,Jack Hughston Memorial Hospital,Short Term Acute Care Hospital,Phenix City,AL
90,1115,Alabama,33.60437050000007,-86.30172529999999,7063 Veterans Pkwy,St Vincents St Clair,Short Term Acute Care Hospital,Pell City,AL
91,1117,Alabama,33.25241390000008,-86.8130445,1000 1st St N,Shelby Baptist Medical Center,Short Term Acute Care Hospital,Alabaster,AL
92,1119,Alabama,32.4917,-88.296,751 Derby Dr,Hill Hospital of Sumter County,Short Term Acute Care Hospital,York,AL
93,1121,Alabama,33.16444660000008,-86.25520419999998,315 W Hickory St,Coosa Valley Medical Center,Short Term Acute Care Hospital,Sylacauga,AL
94,1121,Alabama,33.4397,-86.0921,604 Stone Ave,Citizens Baptist Medical Center,Short Term Acute Care Hospital,Talladega,AL
95,1123,Alabama,32.82,-85.7415,201 Mariarden Rd,Lake Martin Community Hospital,Short Term Acute Care Hospital,Dadeville,AL
96,1123,Alabama,32.9316,-85.9687,3316 Highway 280,Russell Medical Center,Short Term Acute Care Hospital,Alexander City,AL
97,1125,Alabama,33.20479530000006,-87.52669559999998,809 University Blvd E,DCH Regional Medical Center,Short Term Acute Care Hospital,Tuscaloosa,AL
98,1125,Alabama,33.191365200000064,-87.48656129999995,3701 Loop Road East,Tuscaloosa VA Medical Center,VA Hospital,Tuscaloosa,AL
99,1127,Alabama,33.829811,-87.20808949999997,3400 Highway 78 E,Walker Baptist Medical Center,Short Term Acute Care Hospital,Jasper,AL
100,1129,Alabama,31.459627100000034,-88.235022,14600 Saint Stephens Ave,Washington County Hospital,Critical Access Hospital,Chatom,AL
101,1131,Alabama,31.998095300000045,-87.30016289999998,317 Mcwilliams Ave,J Paul Jones Hospital,Short Term Acute Care Hospital,Camden,AL
102,1133,Alabama,34.241867,-87.591312,42024 Highway 195,Lakeland Community Hospital,Short Term Acute Care Hospital,Haleyville,AL
103,2020,Alaska,61.18790490000004,-149.81691369999996,3200 Providence Dr,Providence Alaska Medical Center,Short Term Acute Care Hospital,Anchorage,AK
104,2020,Alaska,61.21069310000007,-149.82873329999998,2801 Debarr Rd,Alaska Regional Hospital,Short Term Acute Care Hospital,Anchorage,AK
105,2020,Alaska,61.18296470000007,-149.79996729999996,4315 Diplomacy Dr,Alaska Native Medical Center,Short Term Acute Care Hospital,Anchorage,AK
106,2050,Alaska,60.7494,-161.7271,829 Chief Eddie Hoffman Hwy,Yukon-Kuskokwim Delta Regional Hospital,Short Term Acute Care Hospital,Bethel,AK
107,23011,Maine,44.31062410000004,-69.77948969999994,1 Va Ctr,Maine VA Medical Center (AKA Togus VA Medical Center),VA Hospital,Augusta,ME
108,2090,Alaska,64.83115690000005,-147.73994709999997,1650 Cowles St,Fairbanks Memorial Hospital,Short Term Acute Care Hospital,Fairbanks,AK
109,2110,Alaska,58.32901640000006,-134.46491669999995,3260 Hospital Dr,Bartlett Regional Hospital,Short Term Acute Care Hospital,Juneau,AK
110,2122,Alaska,60.49336990000006,-151.07825209999996,250 Hospital Pl,Central Peninsula Hospital,Short Term Acute Care Hospital,Soldotna,AK
111,2122,Alaska,60.26951,-149.388742,417 1st Ave,Providence Seward Medical & Care Center,Critical Access Hospital,Seward,AK
112,2122,Alaska,59.65215050000006,-151.55003389999996,4300 Bartlett St,South Peninsula Hospital,Critical Access Hospital,Homer,AK
113,2130,Alaska,55.35365710000008,-131.6866346,3100 Tongass Ave,PeaceHealth Ketchikan Medical Center,Critical Access Hospital,Ketchikan,AK
114,24510,Maryland,39.289565,-76.62448389999997,10 N Greene St,VA Maryland Health Care System - Baltimore VA Medical Center,VA Hospital,Baltimore,MD
115,2150,Alaska,57.80088370000004,-152.37564719999995,1915 E Rezanof Dr,Providence Kodiak Island Medical Center,Critical Access Hospital,Kodiak,AK
116,2170,Alaska,61.56316030000005,-149.25763829999997,2500 S Woodworth Loop,Mat-Su Regional Medical Center,Short Term Acute Care Hospital,Palmer,AK
117,2180,Alaska,64.497393,-165.40595,1000 Greg Kruschek Ave,Norton Sound Regional Hospital,Critical Access Hospital,Nome,AK
118,2220,Alaska,57.05199030000006,-135.35519879999998,222 Tongass Dr,Mt Edgecumbe Hospital,Critical Access Hospital,Sitka,AK
119,2275,Alaska,56.3147,-131.7229,310 Bennett St,Wrangell Medical Center,Critical Access Hospital,Wrangell,AK
120,25015,Massachusetts,42.34717390000003,-72.68592709999996,421 N Main St,VA Central Western Massachusetts Healthcare System - Northampton VA Medical Center (AKA Edward P Boland Department of Veterans Affairs Medical Center),VA Hospital,Leeds,MA
121,25017,Massachusetts,42.50719460000005,-71.27558859999994,200 Springs Rd,Edith Nourse Rogers Memorial Veterans Hospital,VA Hospital,Bedford,MA
122,4001,Arizona,35.759317,-109.04839919999996,Intersection of Route 12 and 7,Fort Defiance Indian Hospital,Short Term Acute Care Hospital,Fort Defiance,AZ
123,4001,Arizona,36.1542,-109.5526,Highway 191,Chinle Comprehensive Health Care Facility,Short Term Acute Care Hospital,Chinle,AZ
124,4001,Arizona,35.6053,-109.4589,US-191 & AZ-264,Sage Memorial Hospital,Critical Access Hospital,Ganado,AZ
125,4001,Arizona,34.13164090000004,-109.28550009999998,118 S Mountain Ave,White Mountain Regional Medical Center,Critical Access Hospital,Springerville,AZ
126,4003,Arizona,31.417589700000065,-109.88279329999996,101 Cole Ave,Copper Queen Community Hospital,Critical Access Hospital,Bisbee,AZ
127,4003,Arizona,31.96494380000007,-110.30849529999996,450 S Ocotillo Ave,Benson Hospital,Critical Access Hospital,Benson,AZ
128,4003,Arizona,32.26491250000004,-109.838086,901 W Rex Allen Dr,Northern Cochise Community Hospital,Critical Access Hospital,Willcox,AZ
129,4003,Arizona,31.554586,-110.230876,5700 E Highway 90,Canyon Vista Medical Center (FKA Sierra Vista Regional Health Center),Short Term Acute Care Hospital,Sierra Vista,AZ
130,4005,Arizona,35.209004900000025,-111.64390729999997,1200 N Beaver St,Flagstaff Medical Center,Short Term Acute Care Hospital,Flagstaff,AZ
131,4005,Arizona,36.91754,-111.463911,501 N Navajo Dr,Page Hospital,Critical Access Hospital,Page,AZ
132,4005,Arizona,36.1362,-111.2397,167 Main Street,Tuba City Regional Health Care,Short Term Acute Care Hospital,Tuba City,AZ
133,4009,Arizona,33.2953,-110.4178,103 Medicine Way Rd,San Carlos Apache Healthcare (FKA PHS Indian Hospital - San Carlos),Short Term Acute Care Hospital,Peridot,AZ
134,4007,Arizona,33.40606280000003,-110.8268096,5880 S Hospital Dr,Cobre Valley Regional Medical Center,Critical Access Hospital,Globe,AZ
135,4007,Arizona,34.2317,-111.3213,807 S Ponderosa St,Banner Payson Medical Center (AKA Payson Regional Medical Center),Critical Access Hospital,Payson,AZ
136,4009,Arizona,32.822625,-109.734994,1600 S 20th Ave,Mt Graham Regional Medical Center,Short Term Acute Care Hospital,Safford,AZ
137,4012,Arizona,34.13563650000003,-114.28479369999997,1200 W Mohave Rd,La Paz Regional Hospital,Critical Access Hospital,Parker,AZ
138,4013,Arizona,33.38995440000008,-111.8770411,1400 S Dobson Rd,Banner Desert Medical Center,Short Term Acute Care Hospital,Mesa,AZ
139,4013,Arizona,33.60367670000005,-112.28422309999996,10401 W Thunderbird Blvd,Banner Boswell Medical Center,Short Term Acute Care Hospital,Sun City,AZ
140,4013,Arizona,33.481882,-112.0793096,350 W Thomas Rd,St Josephs Hospital and Medical Center,Short Term Acute Care Hospital,Phoenix,AZ
141,4013,Arizona,33.525601,-112.10206549999998,2000 W Bethany Home Rd,Abrazo Central Campus (FKA Phoenix Baptist Hospital),Short Term Acute Care Hospital,Phoenix,AZ
142,4013,Arizona,33.29738670000006,-111.87460539999996,1955 W Frye Rd,Chandler Regional Medical Center,Short Term Acute Care Hospital,Chandler,AZ
143,4013,Arizona,33.48869670000005,-111.9229987,7400 E Osborn Rd,HonorHealth Scottsdale Osborn Medical Center,Short Term Acute Care Hospital,Scottsdale,AZ
144,4013,Arizona,33.457309800000075,-112.02611909999996,2601 E Roosevelt St,Valleywise Health Medical Center (FKA Maricopa Medical Center),Short Term Acute Care Hospital,Phoenix,AZ
145,4013,Arizona,33.56892940000006,-112.0710274,250 E Dunlap Ave,HonorHealth John C Lincoln Medical Center (FKA John C Lincoln North Mountain Hospital),Short Term Acute Care Hospital,Phoenix,AZ
146,4013,Arizona,33.50278190000006,-112.17077909999996,5102 W Campbell Ave,Valleywise Behavioral Health Center - Maryvale (FKA MIHS Maryvale Hospital),Short Term Acute Care Hospital,Phoenix,AZ
147,4013,Arizona,33.464967400000035,-112.05788359999995,1111 E Mcdowell Rd,Banner - University Medical Center Phoenix (FKA Banner Good Samaritan Medical Center),Short Term Acute Care Hospital,Phoenix,AZ
148,4013,Arizona,33.49695,-112.049421,4212 N 16th St,Phoenix Indian Medical Center,Short Term Acute Care Hospital,Phoenix,AZ
149,4013,Arizona,33.63929020000006,-111.99752149999996,3929 E Bell Rd,Abrazo Scottsdale Campus (FKA Paradise Valley Hospital),Short Term Acute Care Hospital,Phoenix,AZ
150,4013,Arizona,33.580069,-111.8851431,9003 E Shea Blvd,HonorHealth Scottsdale Shea Medical Center,Short Term Acute Care Hospital,Scottsdale,AZ
151,4013,Arizona,33.41130950000007,-111.68750789999996,6644 E Baywood Ave,Banner Baywood Medical Center,Short Term Acute Care Hospital,Mesa,AZ
152,4013,Arizona,33.609194100000025,-112.17958439999995,5555 W Thunderbird Rd,Banner Thunderbird Medical Center,Short Term Acute Care Hospital,Glendale,AZ
153,4013,Arizona,33.666004600000065,-112.11600869999997,19829 N 27th Ave,HonorHealth Deer Valley Medical Center,Short Term Acute Care Hospital,Phoenix,AZ
154,4013,Arizona,33.660310700000025,-112.37280089999996,14502 W Meeker Blvd,Banner Del E Webb Medical Center,Short Term Acute Care Hospital,Sun City West,AZ
155,4013,Arizona,33.65508950000003,-112.20154639999998,18701 N 67th Ave,Abrazo Arrowhead Campus (FKA Arrowhead Hospital),Short Term Acute Care Hospital,Glendale,AZ
156,4013,Arizona,33.65889850000008,-111.95641919999996,5777 E Mayo Blvd,Mayo Clinic Hospital - Arizona,Short Term Acute Care Hospital,Phoenix,AZ
157,4013,Arizona,33.41123070000003,-111.6868295,6750 E Baywood Ave,Banner Heart Hospital,Short Term Acute Care Hospital,Mesa,AZ
158,4013,Arizona,33.38037950000006,-111.7347299,4620 E Baseline Rd,Arizona Spine & Joint Hospital,Short Term Acute Care Hospital,Mesa,AZ
159,4013,Arizona,33.53219690000003,-112.098972,6501 N 19th Ave,CORE Institute Specialty Hospital (FKA the Surgical Hospital of Phoenix),Short Term Acute Care Hospital,Phoenix,AZ
160,4013,Arizona,33.46255690000004,-112.35214889999996,13677 W Mcdowell Rd,Abrazo West Campus (FKA West Valley Hospital),Short Term Acute Care Hospital,Goodyear,AZ
161,4013,Arizona,33.97828240000007,-112.73914109999998,520 Rose Ln,Wickenburg Community Hospital,Critical Access Hospital,Wickenburg,AZ
162,4013,Arizona,33.333753700000045,-111.891233,2905 W Warner Rd,Dignity Health Arizona Specialty Hospital (FKA Arizona Orthopedic Surgical Hospital),Short Term Acute Care Hospital,Chandler,AZ
163,4013,Arizona,33.47848220000003,-112.25758889999996,9201 W Thomas Rd,Banner Estrella Medical Center,Short Term Acute Care Hospital,Phoenix,AZ
164,4013,Arizona,33.28716510000004,-111.75224349999996,3555 S Val Vista Dr,Mercy Gilbert Medical Center,Short Term Acute Care Hospital,Gilbert,AZ
165,4013,Arizona,33.39146260000007,-111.61208739999996,1301 S Crismon Rd,Mountain Vista Medical Center,Short Term Acute Care Hospital,Mesa,AZ
166,4013,Arizona,33.38404680000008,-111.7225666,1900 N Higley Rd,Banner Gateway Medical Center,Short Term Acute Care Hospital,Gilbert,AZ
167,4013,Arizona,33.67098130000005,-111.92229519999997,7400 E Thompson Peak Pkwy,HonorHealth Scottsdale Thompson Peak Medical Center,Short Term Acute Care Hospital,Scottsdale,AZ
168,4013,Arizona,33.479290400000025,-112.03999869999996,1919 E Thomas Rd,Phoenix Childrens Hospital,Childrens Hospital,Phoenix,AZ
169,4015,Arizona,35.00274850000005,-114.59627659999995,5330 S Highway 95,Valley View Medical Center,Short Term Acute Care Hospital,Fort Mohave,AZ
170,4015,Arizona,35.11080560000005,-114.55498289999996,2735 Silver Creek Rd,Western Arizona Regional Medical Center,Short Term Acute Care Hospital,Bullhead City,AZ
171,4015,Arizona,34.48038210000004,-114.33886679999996,101 Civic Center Ln,Havasu Regional Medical Center,Short Term Acute Care Hospital,Lake Havasu City,AZ
172,4015,Arizona,35.22015470000008,-114.03709329999998,3269 N Stockton Hill Rd,Kingman Regional Medical Center,Short Term Acute Care Hospital,Kingman,AZ
173,4017,Arizona,34.20281370000004,-110.01798119999997,2200 E Show Low Lake Rd,Summit Healthcare Regional Medical Center,Short Term Acute Care Hospital,Show Low,AZ
174,4017,Arizona,35.9347,-110.453,Highway 264 Mile Post 388,Hopi Health Care Center,Critical Access Hospital,Polacca,AZ
175,4017,Arizona,33.8758,-109.9577,200 West Hospital Drive,Whiteriver Indian Hospital,Short Term Acute Care Hospital,Whiteriver,AZ
176,4017,Arizona,35.03582970000008,-110.69259769999996,1501 N Williamson Ave,Little Colorado Medical Center,Critical Access Hospital,Winslow,AZ
177,4019,Arizona,32.42925850000006,-110.94859229999996,1551 E Tangerine Rd,Oro Valley Hospital,Short Term Acute Care Hospital,Oro Valley,AZ
178,4019,Arizona,31.9183,-111.8792,Arizona State Highway 86,Sells Indian Hospital,Short Term Acute Care Hospital,Sells,AZ
179,4019,Arizona,32.320276800000045,-111.01007519999996,6200 N La Cholla Blvd,Northwest Medical Center,Short Term Acute Care Hospital,Tucson,AZ
180,4019,Arizona,32.1778,-110.9295,2800 E Ajo Way,Banner - University Medical Center South (FKA University of Arizona Medical Center - South Campus),Short Term Acute Care Hospital,Tucson,AZ
181,4019,Arizona,32.2468,-110.9447,1625 N Campbell Ave,Banner - University Medical Center Tucson (FKA University of Arizona Medical Center),Short Term Acute Care Hospital,Tucson,AZ
182,4019,Arizona,32.25271330000004,-110.87812479999997,5301 E Grant Rd,Tucson Medical Center (AKA TMC HealthCare),Short Term Acute Care Hospital,Tucson,AZ
183,4019,Arizona,32.228575,-111.001298,1601 W Saint Marys Rd,St Marys Hospital,Short Term Acute Care Hospital,Tucson,AZ
184,4019,Arizona,32.22648910000004,-110.8550125,350 N Wilmot Rd,St Joseph Hospital,Short Term Acute Care Hospital,Tucson,AZ
185,4021,Arizona,32.880740100000025,-111.70974549999994,1800 E Florence Blvd,Banner Casa Grande Medical Center,Short Term Acute Care Hospital,Casa Grande,AZ
186,4023,Arizona,31.340479,-110.959983,1171 W Target Range Rd,Holy Cross Hospital,Critical Access Hospital,Nogales,AZ
187,4025,Arizona,34.55193,-112.45232,500 N Us Highway 89,Northern Arizona VA Health Care System,VA Hospital,Prescott,AZ
188,4025,Arizona,34.55934330000008,-112.48111259999996,1003 Willow Creek Rd,Yavapai Regional Medical Center - West,Short Term Acute Care Hospital,Prescott,AZ
189,4025,Arizona,34.73572880000006,-112.029221,269 S Candy Ln,Verde Valley Medical Center,Short Term Acute Care Hospital,Cottonwood,AZ
190,4027,Arizona,32.682398800000044,-114.634916,2400 S Avenue A,Yuma Regional Medical Center,Short Term Acute Care Hospital,Yuma,AZ
191,5001,Arkansas,34.51774780000005,-91.55878369999994,1703 N Buerkle St,Baptist Health - Stuttgart,Short Term Acute Care Hospital,Stuttgart,AR
192,5001,Arkansas,34.27961370000003,-91.33815669999996,1641 S Whitehead Dr,DeWitt Hospital & Nursing Home,Critical Access Hospital,De Witt,AR
193,5003,Arkansas,33.13849430000005,-91.93886159999994,1015 Unity Rd,Ashley County Medical Center,Critical Access Hospital,Crossett,AR
194,5005,Arkansas,36.34295020000008,-92.39441849999996,624 Hospital Dr,Baxter Regional Medical Center,Short Term Acute Care Hospital,Mountain Home,AR
195,5007,Arkansas,36.18954280000003,-94.50834809999998,603 N Progress Ave,Siloam Springs Regional Hospital,Short Term Acute Care Hospital,Siloam Springs,AR
196,5007,Arkansas,36.30884780000002,-94.18289629999998,2710 S Rife Medical Ln,Mercy Hospital Northwest Arkansas (FKA Mercy Medical Center),Short Term Acute Care Hospital,Rogers,AR
197,5007,Arkansas,36.408641,-94.45934159999996,1101 Jackson St Sw,Ozarks Community Hospital of Gravette (AKA Ozarks Community Health System),Critical Access Hospital,Gravette,AR
198,5009,Arkansas,36.23656980000004,-93.10882439999996,620 N Main St,North Arkansas Regional Medical Center,Short Term Acute Care Hospital,Harrison,AR
199,5011,Arkansas,33.61077020000005,-92.05913779999996,404 S Bradley St,Bradley County Medical Center,Critical Access Hospital,Warren,AR
200,5015,Arkansas,36.358969900000034,-93.55169789999997,214 Carter St,Mercy Hospital Berryville (FKA St Johns Hospital Berryville),Critical Access Hospital,Berryville,AR
201,5017,Arkansas,33.306322900000055,-91.28955269999994,2729 S Highway 65 82,Chicot Memorial Medical Center,Critical Access Hospital,Lake Village,AR
202,5019,Arkansas,34.122826400000065,-93.08873609999996,3050 Twin Rivers Dr,Baptist Health - Arkadelphia,Critical Access Hospital,Arkadelphia,AR
203,5021,Arkansas,36.3918,-90.2046,1206 Gordon Duckworth Dr,Piggott Community Hospital,Critical Access Hospital,Piggott,AR
204,5023,Arkansas,35.504482,-91.99805919999994,1800 ByPass Rd,Baptist Health - Heber Springs,Critical Access Hospital,Heber Springs,AR
205,5027,Arkansas,33.27425690000007,-93.23918479999998,101 Hospital Dr,Magnolia Regional Medical Center,Short Term Acute Care Hospital,Magnolia,AR
206,44007,Rhode Island,41.83231540000003,-71.43400669999994,830 Chalkstone Ave,Providence VA Medical Center,VA Hospital,Providence,RI
207,5029,Arkansas,35.16795430000008,-92.7213852,4 Hospital Dr,CHI St Vincent Morrilton,Critical Access Hospital,Morrilton,AR
208,5031,Arkansas,35.86686780000008,-90.63670429999996,4800 E Johnson Ave,NEA Baptist Memorial Hospital,Short Term Acute Care Hospital,Jonesboro,AR
209,5031,Arkansas,35.838368,-90.703918,225 E Washington Ave,St Bernards Medical Center,Short Term Acute Care Hospital,Jonesboro,AR
210,5033,Arkansas,35.43517890000004,-94.33868159999996,211 Crawford Memorial Dr,Baptist Health - Van Buren (FKA Sparks Medical Center - Van Buren),Short Term Acute Care Hospital,Van Buren,AR
211,5037,Arkansas,35.219663500000024,-90.78626779999996,310 Falls Blvd S,CrossRidge Community Hospital,Critical Access Hospital,Wynne,AR
212,5039,Arkansas,33.8116,-92.425,201 N Clifton St,Dallas County Medical Center,Critical Access Hospital,Fordyce,AR
213,5041,Arkansas,33.6188,-91.3934,900 S 3rd St,McGehee Hospital (AKA McGehee-Desha County Hospital),Critical Access Hospital,McGehee,AR
214,5041,Arkansas,33.873186900000064,-91.48025659999996,811 Highway 65 S,Delta Memorial Hospital,Critical Access Hospital,Dumas,AR
215,5043,Arkansas,33.60754730000008,-91.81502029999996,778 Scogin Dr,Drew Memorial Health System (FKA Drew Memorial Hospital),Short Term Acute Care Hospital,Monticello,AR
216,5045,Arkansas,35.08598470000004,-92.45766129999998,2302 College Ave,Conway Regional Medical Center,Short Term Acute Care Hospital,Conway,AR
217,5047,Arkansas,35.485691400000064,-93.83348729999994,801 W River St,Mercy Hospital Ozark,Critical Access Hospital,Ozark,AR
218,5051,Arkansas,34.510017,-93.05718949999994,300 Prospect Ave,Levi Hospital (AKA Leo N Levi National Arthritis Hospital),Short Term Acute Care Hospital,Hot Springs,AR
219,5051,Arkansas,34.486004,-93.035211,1910 Malvern Ave,National Park Medical Center,Short Term Acute Care Hospital,Hot Springs,AR
220,5051,Arkansas,34.46817020000003,-93.06631349999998,300 Werner St,CHI St Vincent Hot Springs (FKA Mercy Hospital Hot Springs),Short Term Acute Care Hospital,Hot Springs,AR
221,5055,Arkansas,36.06,-90.5,900 W Kingshwy,Arkansas Methodist Medical Center,Short Term Acute Care Hospital,Paragould,AR
222,5057,Arkansas,33.64909990000007,-93.58689519999996,2001 S Main St,Wadley Regional Medical Center at Hope (FKA Medical Park Hospital),Short Term Acute Care Hospital,Hope,AR
223,5059,Arkansas,34.35878930000007,-92.785668,1001 Schneider Dr,Baptist Health - Hot Spring County (FKA Hot Spring County Medical Center),Short Term Acute Care Hospital,Malvern,AR
224,45019,South Carolina,32.78411970000008,-79.95406889999998,109 Bee St,Ralph H Johnson VA Medical Center,VA Hospital,Charleston,SC
225,5061,Arkansas,33.94955780000004,-93.88054819999996,130 Medical Cir,Howard Memorial Hospital,Critical Access Hospital,Nashville,AR
226,5063,Arkansas,35.767669700000056,-91.63433269999996,1710 Harrison St,White River Medical Center,Short Term Acute Care Hospital,Batesville,AR
227,5069,Arkansas,34.188636,-92.01767639999996,1600 W 40th Ave,Jefferson Regional Medical Center,Short Term Acute Care Hospital,Pine Bluff,AR
228,5071,Arkansas,35.4643,-93.4449,1100 E Poplar St,Johnson Regional Medical Center,Short Term Acute Care Hospital,Clarksville,AR
229,5075,Arkansas,36.0747,-90.9688,1309 W Main St,Lawrence Memorial Hospital,Critical Access Hospital,Walnut Ridge,AR
230,5083,Arkansas,35.28921320000006,-93.7248661,500 E Academy St,Mercy Hospital Paris (FKA North Logan Mercy Hospital),Critical Access Hospital,Paris,AR
231,5083,Arkansas,35.14044350000006,-93.934819,880 W Main St,Mercy Hospital Booneville (FKA Booneville Community Hospital),Critical Access Hospital,Booneville,AR
232,5093,Arkansas,35.69986350000005,-89.97562419999997,611 W Lee Ave,South Mississippi County Regional Medical Center,Critical Access Hospital,Osceola,AR
233,5093,Arkansas,35.942244,-89.9188352,1520 N Division St,Great River Medical Center,Short Term Acute Care Hospital,Blytheville,AR
234,5103,Arkansas,33.57586440000006,-92.83626019999996,638 California Ave Sw,Ouachita County Medical Center,Short Term Acute Care Hospital,Camden,AR
235,5107,Arkansas,34.51021910000003,-90.62717929999997,1801 Martin Luther King Jr Dr,Helena Regional Medical Center,Short Term Acute Care Hospital,Helena,AR
236,5113,Arkansas,34.58918750000004,-94.22164209999994,311 Morrow St N,Mena Regional Health System,Short Term Acute Care Hospital,Mena,AR
237,5115,Arkansas,35.28319,-93.149218,1808 W Main St,St Marys Regional Medical Center (AKA Saint Marys Regional Health System),Short Term Acute Care Hospital,Russellville,AR
238,5119,Arkansas,34.783804400000065,-92.2229774,3333 Springhill Dr,Baptist Health - North Little Rock,Short Term Acute Care Hospital,North Little Rock,AR
239,5119,Arkansas,34.748863,-92.32121779999994,4301 W Markham St,University of Arkansas for Medical Sciences Medical Center (AKA UAMS),Short Term Acute Care Hospital,Little Rock,AR
240,5119,Arkansas,34.749804,-92.33959689999996,2 Saint Vincent Cir,CHI St Vincent Infirmary,Short Term Acute Care Hospital,Little Rock,AR
241,5119,Arkansas,34.74636760000004,-92.32046749999996,4300 W 7th St,Central Arkansas Veterans Healthcare System - John L McClellan Memorial Veterans Hospital,VA Hospital,Little Rock,AR
242,5119,Arkansas,34.744562200000075,-92.381458,9601 Baptist Health Dr,Baptist Health - Little Rock,Short Term Acute Care Hospital,Little Rock,AR
243,5119,Arkansas,34.800302300000055,-92.34909319999996,5201 Northshore Dr,Arkansas Surgical Hospital,Short Term Acute Care Hospital,North Little Rock,AR
244,5119,Arkansas,34.73906750000003,-92.39330609999996,1701 S Shackleford Rd,Arkansas Heart Hospital,Short Term Acute Care Hospital,Little Rock,AR
245,5119,Arkansas,34.813402300000064,-92.20912419999996,2215 Wildwood Ave,CHI St Vincent North,Short Term Acute Care Hospital,Sherwood,AR
246,5119,Arkansas,34.74294960000003,-92.29296849999996,1 Childrens Way,Arkansas Childrens Hospital,Childrens Hospital,Little Rock,AR
247,5121,Arkansas,36.29004520000007,-90.9974883,2801 Medical Center Dr,St Bernards Five Rivers (FKA Five Rivers Medical Center),Short Term Acute Care Hospital,Pocahontas,AR
248,5123,Arkansas,35.026145100000065,-90.77901819999994,1601 New Castle Rd,Forrest City Medical Center,Short Term Acute Care Hospital,Forrest City,AR
249,5125,Arkansas,34.573828400000025,-92.58556309999994,1 Medical Park Dr,Saline Memorial Hospital,Short Term Acute Care Hospital,Benton,AR
250,5127,Arkansas,34.8968,-94.1074,1341 W 6th St,Mercy Hospital Waldron (FKA Mercy Hospital Scott County),Critical Access Hospital,Waldron,AR
251,5131,Arkansas,35.374113600000044,-94.419774,1001 Towson Ave,Baptist Health - Fort Smith (FKA Sparks Regional Medical Center),Short Term Acute Care Hospital,Fort Smith,AR
252,5131,Arkansas,35.355797100000075,-94.3526657,7301 Rogers Ave,Mercy Hospital Fort Smith (FKA St Edward Mercy Medical Center),Short Term Acute Care Hospital,Fort Smith,AR
253,5137,Arkansas,35.85672310000007,-92.08295879999996,2106 E Main St,Stone County Medical Center,Critical Access Hospital,Mountain View,AR
254,5139,Arkansas,33.2183,-92.6722,700 W Grove St,Medical Center of South Arkansas,Short Term Acute Care Hospital,El Dorado,AR
255,5141,Arkansas,35.559199,-92.452208,2500 Highway 65 S,Ozark Health Medical Center,Critical Access Hospital,Clinton,AR
256,5143,Arkansas,36.07739820000006,-94.15693059999997,1100 N College Ave,Veterans Health Care System of the Ozarks (AKA Fayetteville VA Medical Center),VA Hospital,Fayetteville,AR
257,5143,Arkansas,36.12152040000007,-94.13418449999996,3873 N Parkview Dr,Northwest Health Physicians Specialty Hospital,Short Term Acute Care Hospital,Fayetteville,AR
258,5143,Arkansas,36.18013970000004,-94.13682289999996,609 W Maple Ave,Northwest Medical Center - Springdale,Short Term Acute Care Hospital,Springdale,AR
259,5143,Arkansas,36.10920310000006,-94.15953459999996,3215 N Northhills Blvd,Washington Regional Medical Center,Short Term Acute Care Hospital,Fayetteville,AR
260,5145,Arkansas,35.25068780000004,-91.69233329999996,3214 E Race Ave,Unity Health - White County Medical Center,Short Term Acute Care Hospital,Searcy,AR
261,5149,Arkansas,35.05454560000004,-93.388009,719 Detroit Ave,John Ed Chambers Memorial Hospital,Short Term Acute Care Hospital,Danville,AR
262,5149,Arkansas,35.2202,-93.1565,200 N 3rd St,Dardanelle Regional Medical Center (FKA River Valley Medical Center),Critical Access Hospital,Dardanelle,AR
263,6001,California,37.63367780000005,-122.08854839999998,27200 Calaroga Ave,St Rose Hospital,Short Term Acute Care Hospital,Hayward,CA
264,6001,California,37.821677,-122.26308459999996,350 Hawthorne Ave,Alta Bates Summit Medical Center - Summit Campus,Short Term Acute Care Hospital,Oakland,CA
265,6001,California,37.71223620000006,-122.14335239999996,13855 E 14th St,San Leandro Hospital,Short Term Acute Care Hospital,San Leandro,CA
266,6001,California,37.55726,-121.97976039999998,2000 Mowry Ave,Washington Hospital,Short Term Acute Care Hospital,Fremont,CA
267,6001,California,37.76278060000004,-122.25349109999996,2070 Clinton Ave,Alameda Hospital,Short Term Acute Care Hospital,Alameda,CA
268,6001,California,37.69339460000003,-121.88034169999996,5555 W Las Positas Blvd,Stanford Health Care - ValleyCare Medical Center,Short Term Acute Care Hospital,Pleasanton,CA
269,6001,California,37.85562790000006,-122.25750139999997,2450 Ashby Ave,Alta Bates Summit Medical Center - Alta Bates Campus,Short Term Acute Care Hospital,Berkeley,CA
270,6001,California,37.823492300000055,-122.25812179999996,3600 Broadway,Kaiser Permanente - Oakland Medical Center,Short Term Acute Care Hospital,Oakland,CA
271,6001,California,37.69834050000003,-122.08969149999996,20103 Lake Chabot Rd,Eden Medical Center,Short Term Acute Care Hospital,Castro Valley,CA
272,6005,California,38.35048260000008,-120.764465,200 Mission Blvd,Sutter Amador Hospital,Short Term Acute Care Hospital,Jackson,CA
273,6007,California,39.74258670000006,-121.849727,1531 Esplanade,Enloe Medical Center,Short Term Acute Care Hospital,Chico,CA
274,6007,California,39.50625970000005,-121.54109279999994,2767 Olive Hwy,Oroville Hospital,Short Term Acute Care Hospital,Oroville,CA
275,6009,California,38.190076100000056,-120.6706256,768 Mountain Ranch Rd,Mark Twain Medical Center,Critical Access Hospital,San Andreas,CA
276,6011,California,39.20630060000008,-122.00071449999996,199 E Webster St,Colusa Regional Medical Center,Short Term Acute Care Hospital,Colusa,CA
277,6013,California,37.98289960000005,-122.03375649999998,2540 East St,John Muir Health - Concord Medical Center,Short Term Acute Care Hospital,Concord,CA
278,6013,California,37.982759300000055,-121.8029656,3901 Lone Tree Way,Sutter Delta Medical Center,Short Term Acute Care Hospital,Antioch,CA
279,6013,California,37.77597050000003,-121.95824259999996,6001 Norris Canyon Rd,San Ramon Regional Medical Center,Short Term Acute Care Hospital,San Ramon,CA
280,6013,California,37.95084180000004,-121.77492859999997,4501 Sand Creek Rd,Kaiser Permanente - Antioch Medical Center,Short Term Acute Care Hospital,Antioch,CA
281,6013,California,38.006764,-122.13279369999998,2500 Alhambra Ave,Contra Costa Regional Medical Center,Short Term Acute Care Hospital,Martinez,CA
282,6013,California,37.89143680000007,-122.05894179999996,1425 S Main St,Kaiser Permanente - Walnut Creek Medical Center,Short Term Acute Care Hospital,Walnut Creek,CA
283,6013,California,37.91287690000007,-122.04094979999996,1601 Ygnacio Valley Rd,John Muir Health - Walnut Creek Medical Center,Short Term Acute Care Hospital,Walnut Creek,CA
284,6015,California,41.77365880000008,-124.19424689999994,800 E Washington Blvd,Sutter Coast Hospital,Short Term Acute Care Hospital,Crescent City,CA
285,6017,California,38.72467,-120.79165009999996,1100 Marshall Way,Marshall Medical Center,Short Term Acute Care Hospital,Placerville,CA
286,6017,California,38.91165310000008,-119.99780909999998,2170 South Ave,Barton Memorial Hospital (AKA Barton Health),Short Term Acute Care Hospital,South Lake Tahoe,CA
287,6019,California,36.60807870000008,-119.4517641,372 W Cypress Ave,Adventist Health Reedley,Short Term Acute Care Hospital,Reedley,CA
288,6019,California,36.742835,-119.78485429999996,2823 Fresno St,Community Regional Medical Center,Short Term Acute Care Hospital,Fresno,CA
289,6019,California,36.835202200000026,-119.76552779999996,1303 E Herndon Ave,Saint Agnes Medical Center,Short Term Acute Care Hospital,Fresno,CA
290,6019,California,36.83904290000004,-119.660354,2755 Herndon Ave,Clovis Community Medical Center,Short Term Acute Care Hospital,Clovis,CA
291,6019,California,36.82484590000007,-119.78191439999996,6125 N Fresno St,Fresno Surgical Hospital,Short Term Acute Care Hospital,Fresno,CA
292,6019,California,36.84243310000005,-119.780467,7300 N Fresno St,Kaiser Permanente - Fresno Medical Center,Short Term Acute Care Hospital,Fresno,CA
293,6019,California,36.85991530000007,-119.7887439,15 E Audubon Dr,Fresno Heart & Surgical Hospital,Short Term Acute Care Hospital,Fresno,CA
294,6021,California,39.52132080000007,-122.20804629999998,1133 W Sycamore St,Glenn Medical Center,Critical Access Hospital,Willows,CA
295,6023,California,40.10164150000003,-123.79224069999998,733 Cedar St,Jerold Phelps Community Hospital,Critical Access Hospital,Garberville,CA
296,6023,California,40.58273440000005,-124.1362107,3300 Renner Dr,Redwood Memorial Hospital,Critical Access Hospital,Fortuna,CA
297,6023,California,40.89633610000004,-124.09167069999997,3800 Janes Rd,Mad River Community Hospital,Short Term Acute Care Hospital,Arcata,CA
298,6023,California,40.78401570000005,-124.14237859999996,2700 Dolbeer St,St Joseph Hospital - Eureka,Short Term Acute Care Hospital,Eureka,CA
299,54003,West Virginia,39.41421290000005,-77.91143849999997,510 Butler Ave,Martinsburg VA Medical Center,VA Hospital,Martinsburg,WV
300,6025,California,32.78043330000003,-115.568571,1415 Ross Ave,El Centro Regional Medical Center,Short Term Acute Care Hospital,El Centro,CA
301,6025,California,32.95911250000006,-115.55390659999996,207 W Legion Rd,Pioneers Memorial Hospital (AKA Pioneers Memorial Healthcare District),Short Term Acute Care Hospital,Brawley,CA
302,6027,California,36.60905390000005,-118.05785289999994,501 E Locust St,Southern Inyo Hospital (AKA Southern Inyo Healthcare District),Critical Access Hospital,Lone Pine,CA
303,6027,California,37.36218260000004,-118.40715219999998,150 Pioneer Ln,Northern Inyo Hospital,Critical Access Hospital,Bishop,CA
304,6029,California,35.635214,-118.40601969999994,6412 Laurel Ave,Kern Valley Healthcare District,Critical Access Hospital,Lake Isabella,CA
305,6029,California,35.147446,-118.4504419,1100 Magellan Dr,Adventist Health Tehachapi Valley (FKA Tehachapi Hospital),Critical Access Hospital,Tehachapi,CA
306,6029,California,35.38293470000008,-118.97053309999995,1700 Mount Vernon Ave,Kern Medical (FKA Kern Medical Center),Short Term Acute Care Hospital,Bakersfield,CA
307,6029,California,35.37278470000007,-119.02764259999998,2215 Truxtun Ave,Mercy Hospital Downtown - Bakersfield,Short Term Acute Care Hospital,Bakersfield,CA
308,6029,California,35.351561100000026,-119.05762979999996,901 Olive Dr,Good Samaritan Hospital,Short Term Acute Care Hospital,Bakersfield,CA
309,6029,California,35.76228540000005,-119.23925189999994,1401 Garces Hwy,Delano Regional Medical Center (AKA Adventist Health Delano),Short Term Acute Care Hospital,Delano,CA
310,6029,California,35.38470810000007,-119.03991709999995,3001 Sillect Ave,Bakersfield Heart Hospital,Short Term Acute Care Hospital,Bakersfield,CA
311,6029,California,35.64086,-117.671187,1081 N China Lake Blvd,Ridgecrest Regional Hospital,Critical Access Hospital,Ridgecrest,CA
312,6029,California,35.38337440000004,-119.0206543,2615 Chester Ave,Adventist Health Bakersfield (FKA San Joaquin Community Hospital),Short Term Acute Care Hospital,Bakersfield,CA
313,6029,California,35.39170380000007,-119.006893,420 34th St,Memorial Hospital - Bakersfield (FKA Bakersfield Memorial Hospital),Short Term Acute Care Hospital,Bakersfield,CA
314,6031,California,36.32378720000003,-119.66644659999996,115 Mall Dr,Adventist Health Hanford,Short Term Acute Care Hospital,Hanford,CA
315,6033,California,38.9355,-122.6201,15630 18th Ave,Adventist Health Clear Lake (FKA St Helena Hospital - Clear Lake),Critical Access Hospital,Clearlake,CA
316,6033,California,39.104428100000064,-122.906501,5176 Hill Rd E,Sutter Lakeside Hospital,Critical Access Hospital,Lakeport,CA
317,6035,California,40.43667260000007,-120.62781309999995,1800 Spring Ridge Dr,Banner Lassen Medical Center,Critical Access Hospital,Susanville,CA
318,6037,California,33.33916080000006,-118.33071619999998,100 Falls Canyon Rd,Catalina Island Medical Center,Critical Access Hospital,Avalon,CA
319,6037,California,34.09747440000007,-118.28977249999996,4650 W Sunset Blvd,Childrens Hospital Los Angeles,Childrens Hospital,Los Angeles,CA
320,6037,California,33.80836050000005,-118.18732359999996,2801 Atlantic Ave,Miller Childrens & Womens Hospital Long Beach,Childrens Hospital,Long Beach,CA
321,6037,California,34.204535100000044,-118.216049,1812 Verdugo Blvd,USC Verdugo Hills Hospital,Short Term Acute Care Hospital,Glendale,CA
322,6037,California,34.19503160000005,-118.46329329999998,15107 Vanowen St,Valley Presbyterian Hospital,Short Term Acute Care Hospital,Van Nuys,CA
323,6037,California,34.100917,-118.10559259999997,438 W Las Tunas Dr,San Gabriel Valley Medical Center,Short Term Acute Care Hospital,San Gabriel,CA
324,6037,California,34.21838580000008,-118.43020629999997,13651 Willard St,Panorama City Medical Center,Short Term Acute Care Hospital,Panorama City,CA
325,6037,California,34.09834110000003,-118.29459079999998,4867 W Sunset Blvd,Los Angeles Medical Center,Short Term Acute Care Hospital,Los Angeles,CA
326,6037,California,33.91915280000006,-118.1288176,9333 Imperial Hwy,Downey Medical Center,Short Term Acute Care Hospital,Downey,CA
327,6037,California,33.779809,-118.186299,1050 Linden Ave,St Mary Medical Center Long Beach,Short Term Acute Care Hospital,Long Beach,CA
328,6037,California,33.96980410000003,-118.04907329999998,12401 Washington Blvd,PIH Health Hospital - Whittier (FKA Presbyterian Intercommunity Hospital),Short Term Acute Care Hospital,Whittier,CA
329,6037,California,34.132011,-117.968093,1500 Duarte Rd,City of Hope Helford Clinical Research Hospital,Short Term Acute Care Hospital,Duarte,CA
330,6037,California,34.03748880000006,-118.26614489999996,1401 S Grand Ave,California Hospital Medical Center,Short Term Acute Care Hospital,Los Angeles,CA
331,6037,California,34.099908,-118.327509,6245 De Longpre Ave,Southern California Hospital at Hollywood (FKA Hollywood Community Hospital),Short Term Acute Care Hospital,Los Angeles,CA
332,6037,California,34.15745,-118.4868009,16237 Ventura Blvd,Encino Hospital Medical Center,Short Term Acute Care Hospital,Encino,CA
333,6037,California,33.98936,-118.2242657,2623 E Slauson Ave,Community Hospital of Huntington Park,Short Term Acute Care Hospital,Huntington Park,CA
334,6037,California,34.071352,-117.944755,725 S Orange Ave,West Covina Medical Center (AKA Doctors Hospital of West Covina),Short Term Acute Care Hospital,West Covina,CA
335,6037,California,34.04925790000004,-118.21724529999996,1720 E Cesar E Chavez Ave,Adventist Health White Memorial (FKA White Memorial Medical Center),Short Term Acute Care Hospital,Los Angeles,CA
336,6037,California,33.930826,-118.203228,3630 E Imperial Hwy,St Francis Medical Center,Short Term Acute Care Hospital,Lynwood,CA
337,6037,California,34.027099,-118.48630509999998,1250 16th St,UCLA Health - Santa Monica Medical Center,Short Term Acute Care Hospital,Santa Monica,CA
338,6037,California,34.22009550000007,-118.53311359999998,18300 Roscoe Blvd,Northridge Hospital Medical Center,Short Term Acute Care Hospital,Northridge,CA
339,6037,California,34.09604250000007,-118.29062039999997,1300 N Vermont Ave,CHA Hollywood Presbyterian Medical Center,Short Term Acute Care Hospital,Los Angeles,CA
340,6037,California,34.12808620000004,-118.25695639999998,1420 S Central Ave,Glendale Memorial Hospital,Short Term Acute Care Hospital,Glendale,CA
341,6037,California,33.73836150000005,-118.30504309999998,1300 W 7th St,Providence Little Company of Mary Medical Center San Pedro,Short Term Acute Care Hospital,San Pedro,CA
342,6037,California,33.91277260000004,-118.09882569999996,13100 Studebaker Rd,Coast Plaza Hospital,Short Term Acute Care Hospital,Norwalk,CA
343,6037,California,34.5828,-118.1443,38600 Medical Center Dr,Palmdale Regional Medical Center,Short Term Acute Care Hospital,Palmdale,CA
344,6037,California,34.12756020000006,-117.86511709999996,150 W Route 66,Glendora Oaks Behavioral Health Hospital (FKA Glendora Community Hospital),Psychiatric Hospital,Glendora,CA
345,6037,California,34.07607580000007,-117.75044939999998,1798 N Garey Ave,Pomona Valley Hospital Medical Center,Short Term Acute Care Hospital,Pomona,CA
346,6037,California,34.156213800000046,-118.3284546,501 S Buena Vista St,Providence Saint Joseph Medical Center,Short Term Acute Care Hospital,Burbank,CA
347,6037,California,34.13444860000004,-118.04166229999998,300 W Huntington Dr,Methodist Hospital of Southern California,Short Term Acute Care Hospital,Arcadia,CA
348,6037,California,34.15021390000004,-118.23045909999996,1509 Wilson Ter,Adventist Health Glendale (FKA Glendale Adventist Medical Center),Short Term Acute Care Hospital,Glendale,CA
349,6037,California,33.806950200000074,-118.19285319999994,2776 Pacific Ave,College Medical Center (FKA Pacific Hospital of Long Beach),Short Term Acute Care Hospital,Long Beach,CA
350,6037,California,34.279939400000046,-118.45991629999996,15031 Rinaldi St,Providence Holy Cross Medical Center,Short Term Acute Care Hospital,Mission Hills,CA
351,6037,California,34.03077390000004,-118.47964449999996,2121 Santa Monica Blvd,Providence Saint Johns Health Center (FKA St Johns Health Center),Short Term Acute Care Hospital,Santa Monica,CA
352,6037,California,33.777569,-118.11894279999996,5901 E 7th St,VA Long Beach Healthcare System (AKA Tibor Rubin VA Medical Center),VA Hospital,Long Beach,CA
353,6037,California,34.066476400000056,-118.44657379999995,757 Westwood Plz,Ronald Reagan UCLA Medical Center,Short Term Acute Care Hospital,Los Angeles,CA
354,6037,California,34.09030510000008,-118.1440538,100 S Raymond Ave,Alhambra Hospital Medical Center,Short Term Acute Care Hospital,Alhambra,CA
355,6037,California,33.838467800000046,-118.35724359999996,4101 Torrance Blvd,Providence Little Company of Mary Medical Center Torrance,Short Term Acute Care Hospital,Torrance,CA
356,6037,California,34.015015,-118.100636,309 W Beverly Blvd,Beverly Hospital,Short Term Acute Care Hospital,Montebello,CA
357,6037,California,33.81191570000004,-118.34349449999996,3330 Lomita Blvd,Torrance Memorial Medical Center,Short Term Acute Care Hospital,Torrance,CA
358,6037,California,34.240099100000066,-118.39649619999994,9449 San Fernando Rd,Pacifica Hospital of the Valley,Short Term Acute Care Hospital,Sun Valley,CA
359,6037,California,34.08787380000007,-117.89350049999996,210 W San Bernardino Rd,Emanate Health Inter-Community Hospital (FKA Inter-Community Hospital),Short Term Acute Care Hospital,Covina,CA
360,6037,California,33.934150300000056,-118.13174339999996,11500 Brookshire Ave,PIH Health Hospital - Downey (FKA Downey Regional Medical Center and Downey Medical Group),Short Term Acute Care Hospital,Downey,CA
361,6037,California,34.133639,-118.152753,100 W California Blvd,Huntington Hospital (FKA Huntington Memorial Hospital),Short Term Acute Care Hospital,Pasadena,CA
362,6037,California,33.788237700000025,-118.295397,25825 Vermont Ave,South Bay Medical Center,Short Term Acute Care Hospital,Harbor City,CA
363,6037,California,33.892992900000024,-118.29500489999998,1145 W Redondo Beach Blvd,Memorial Hospital of Gardena,Short Term Acute Care Hospital,Gardena,CA
364,6037,California,34.05419880000005,-118.26505929999996,1225 Wilshire Blvd,PIH Health Good Samaritan Hospital,Short Term Acute Care Hospital,Los Angeles,CA
365,6037,California,34.20292550000005,-118.62877909999996,7300 Medical Center Dr,West Hills Hospital & Medical Center,Short Term Acute Care Hospital,West Hills,CA
366,6037,California,33.80836050000005,-118.18732359999996,2801 Atlantic Ave,Long Beach Medical Center (FKA Long Beach Memorial Medical Center),Short Term Acute Care Hospital,Long Beach,CA
367,6037,California,33.87431360000005,-118.12973189999995,9542 Artesia Blvd,Los Angeles Community Hospital at Bellflower (FKA Bellflower Medical Center),Short Term Acute Care Hospital,Bellflower,CA
368,6037,California,34.03834660000007,-118.37590009999997,6041 Cadillac Ave,West Los Angeles Medical Center,Short Term Acute Care Hospital,Los Angeles,CA
369,6037,California,34.06550160000006,-117.98645239999996,1011 Baldwin Park Blvd,Baldwin Park Medical Center,Short Term Acute Care Hospital,Baldwin Park,CA
370,6037,California,33.949821600000064,-118.00332959999996,9080 Colima Rd,Whittier Hospital Medical Center,Short Term Acute Care Hospital,Whittier,CA
371,6037,California,34.04954780000003,-118.1383262,900 S Atlantic Blvd,Monterey Park Hospital,Short Term Acute Care Hospital,Monterey Park,CA
372,6037,California,34.06789470000007,-118.12380429999996,525 N Garfield Ave,Garfield Medical Center,Short Term Acute Care Hospital,Monterey Park,CA
373,6037,California,34.048051600000065,-118.04340029999996,1701 Santa Anita Ave,Greater El Monte Community Hospital,Short Term Acute Care Hospital,South El Monte,CA
374,6037,California,33.9507,-118.3482,555 E Hardy St,Centinela Hospital Medical Center,Short Term Acute Care Hospital,Inglewood,CA
375,6037,California,33.98214350000006,-118.43921919999995,4650 Lincoln Blvd,Cedars-Sinai Marina Del Rey Hospital,Short Term Acute Care Hospital,Marina Del Rey,CA
376,6037,California,34.05728750000003,-118.360485,5900 W Olympic Blvd,Olympia Medical Center,Short Term Acute Care Hospital,Los Angeles,CA
377,6037,California,34.170530100000065,-118.5320582,18321 Clark St,Providence Tarzana Medical Center,Short Term Acute Care Hospital,Tarzana,CA
378,6037,California,34.06953170000003,-118.26348879999996,1711 W Temple St,LA Downtown Medical Center - Downtown Campus (FKA Silver Lake Medical Center - Downtown Campus),Short Term Acute Care Hospital,Los Angeles,CA
379,6037,California,34.16023050000007,-118.44963279999996,4929 Van Nuys Blvd,Sherman Oaks Hospital,Short Term Acute Care Hospital,Sherman Oaks,CA
380,6037,California,34.05269540000006,-118.45261949999995,11301 Wilshire Blvd,VA Greater Los Angeles Healthcare System - West Los Angeles Medical Center,VA Hospital,Los Angeles,CA
381,6037,California,34.44002870000003,-118.59146959999998,23845 Mcbean Pkwy,Henry Mayo Newhall Hospital,Short Term Acute Care Hospital,Valencia,CA
382,6037,California,34.075153,-118.38027659999996,8700 Beverly Blvd,Cedars-Sinai Medical Center,Short Term Acute Care Hospital,Los Angeles,CA
383,6037,California,33.83357010000003,-118.08016959999998,21530 Pioneer Blvd,Pacific Gardens Medical Center (FKA Gardens Regional Hospital and Medical Center),Short Term Acute Care Hospital,Hawaiian Gardens,CA
384,6037,California,33.85993750000006,-118.14865509999998,3700 E South St,Lakewood Regional Medical Center,Short Term Acute Care Hospital,Lakewood,CA
385,6037,California,34.097533,-117.83453139999996,1350 W Covina Blvd,San Dimas Community Hospital,Short Term Acute Care Hospital,San Dimas,CA
386,6037,California,34.1238,-117.8725,250 S Grand Ave,Emanate Health Foothill Presbyterian Hospital (FKA Foothill Presbyterian Hospital),Short Term Acute Care Hospital,Glendora,CA
387,6037,California,34.02376820000006,-118.18414959999996,4060 Whittier Blvd,East Los Angeles Doctors Hospital,Short Term Acute Care Hospital,Los Angeles,CA
388,6037,California,34.06151040000003,-118.20534219999996,1441 Eastlake Ave,USC Kenneth Norris Jr Cancer Hospital,Short Term Acute Care Hospital,Los Angeles,CA
389,6037,California,34.01934980000004,-118.18654669999997,4081 E Olympic Blvd,Los Angeles Community Hospital,Short Term Acute Care Hospital,Los Angeles,CA
390,6037,California,34.170384600000034,-118.58993589999994,5601 De Soto Ave,Woodland Hills Medical Center,Short Term Acute Care Hospital,Woodland Hills,CA
391,6037,California,34.06205840000007,-118.20127379999995,1500 San Pablo St,Keck Hospital of USC (FKA USC University Hospital),Short Term Acute Care Hospital,Los Angeles,CA
392,6037,California,34.220425800000044,-118.45654869999998,14850 Roscoe Blvd,Mission Community Hospital,Short Term Acute Care Hospital,Panorama City,CA
393,6037,California,34.32590950000008,-118.44595719999997,14445 Olive View Dr,Olive View - UCLA Medical Center,Short Term Acute Care Hospital,Sylmar,CA
394,6037,California,34.68849370000004,-118.15853019999996,1600 W Avenue J,Antelope Valley Hospital (FKA Antelope Valley Hospital Medical Center),Short Term Acute Care Hospital,Lancaster,CA
395,6039,California,36.944024600000034,-120.04436619999996,1250 E Almond Ave,Madera Community Hospital,Short Term Acute Care Hospital,Madera,CA
396,6041,California,38.004345200000046,-122.55495079999996,99 Montecillo Rd,Kaiser Permanente - San Rafael Medical Center,Short Term Acute Care Hospital,San Rafael,CA
397,6041,California,37.94731520000005,-122.53603059999996,250 Bon Air Rd,MarinHealth Medical Center (FKA Marin General Hospital),Short Term Acute Care Hospital,Greenbrae,CA
398,6041,California,38.099311500000056,-122.56036329999996,180 Rowland Way,Novato Community Hospital,Short Term Acute Care Hospital,Novato,CA
399,6043,California,37.500397,-119.977678,5189 Hospital Rd,John C Fremont Healthcare District,Critical Access Hospital,Mariposa,CA
400,6045,California,39.38994260000004,-123.33894039999996,1 Marcela Dr,Adventist Health Howard Memorial (FKA Frank R Howard Memorial Hospital),Critical Access Hospital,Willits,CA
401,6045,California,39.4325,-123.8015,700 River Dr,Adventist Health Mendocino Coast (AKA Mendocino Coast District Hospital),Critical Access Hospital,Fort Bragg,CA
402,6045,California,39.15306520000007,-123.2028906,275 Hospital Dr,Adventist Health Ukiah Valley (FKA Ukiah Valley Medical Center),Short Term Acute Care Hospital,Ukiah,CA
403,6047,California,37.34014110000004,-120.4671866,333 Mercy Ave,Mercy Medical Center Merced,Short Term Acute Care Hospital,Merced,CA
404,6047,California,37.06409340000005,-120.85913559999996,520 West I St,Memorial Hospital Los Banos,Short Term Acute Care Hospital,Los Banos,CA
405,6049,California,41.5332,-120.1718,741 Main St,Surprise Valley Community Hospital,Critical Access Hospital,Cedarville,CA
406,6053,California,36.65913520000004,-121.64594229999994,450 E Romie Ln,Salinas Valley Memorial Hospital,Short Term Acute Care Hospital,Salinas,CA
407,6053,California,36.69666880000005,-121.63308869999996,1441 Constitution Blvd,Natividad Medical Center,Short Term Acute Care Hospital,Salinas,CA
408,6053,California,36.57856090000007,-121.91340609999996,23625 Holman Hwy,Community Hospital of the Monterey Peninsula (AKA Montage Health),Short Term Acute Care Hospital,Monterey,CA
409,6053,California,36.206236700000034,-121.13282239999997,300 Canal St,Mee Memorial Hospital (FKA George L Mee Memorial Hospital),Critical Access Hospital,King City,CA
410,6055,California,38.324482,-122.29710939999995,1000 Trancas St,Queen of the Valley Medical Center,Short Term Acute Care Hospital,Napa,CA
411,6055,California,38.54255010000003,-122.47482679999996,10 Woodland Rd,Adventist Health St Helena (FKA St Helena Hospital - Napa Valley),Short Term Acute Care Hospital,Saint Helena,CA
412,6057,California,39.22809120000005,-121.0476642,155 Glasson Way,Sierra Nevada Memorial Hospital,Short Term Acute Care Hospital,Grass Valley,CA
413,6057,California,39.33,-120.18,10121 Pine Ave,Tahoe Forest Hospital,Critical Access Hospital,Truckee,CA
414,6059,California,33.894345100000066,-117.92722009999994,101 E Valencia Mesa Dr,St Jude Medical Center,Short Term Acute Care Hospital,Fullerton,CA
415,6059,California,33.782044100000064,-117.86542449999996,1100 W Stewart Dr,St Joseph Hospital Orange,Short Term Acute Care Hospital,Orange,CA
416,6059,California,33.84817510000005,-117.93452639999998,1111 W La Palma Ave,AHMC Anaheim Regional Medical Center,Short Term Acute Care Hospital,Anaheim,CA
417,6059,California,33.624742800000035,-117.93004679999996,1 Hoag Dr,Hoag Hospital Newport Beach,Short Term Acute Care Hospital,Newport Beach,CA
418,6059,California,33.775007,-117.91290759999998,12601 Garden Grove Blvd,Garden Grove Hospital Medical Center,Short Term Acute Care Hospital,Garden Grove,CA
419,6059,California,33.786112,-117.88798029999998,101 The City Dr S,UCI Medical Center (FKA UC Irvine Medical Center),Short Term Acute Care Hospital,Orange,CA
420,6059,California,33.70364,-117.986656,17772 Beach Blvd,Huntington Beach Hospital,Short Term Acute Care Hospital,Huntington Beach,CA
421,6059,California,33.71518530000003,-117.93606719999995,17100 Euclid St,Fountain Valley Regional Hospital & Medical Center,Short Term Acute Care Hospital,Fountain Valley,CA
422,6059,California,33.561015300000065,-117.66539369999998,27700 Medical Center Rd,Mission Hospital Mission Viejo,Short Term Acute Care Hospital,Mission Viejo,CA
423,6059,California,33.651827500000024,-117.91206909999994,301 Victoria St,College Hospital Costa Mesa,Short Term Acute Care Hospital,Costa Mesa,CA
424,6059,California,33.804525400000045,-118.0669994,3751 Katella Ave,Los Alamitos Medical Center,Short Term Acute Care Hospital,Los Alamitos,CA
425,6037,California,34.05770730000006,-118.20797789999996,2051 Marengo St,LAC & USC Medical Center,Short Term Acute Care Hospital,Los Angeles,CA
426,6037,California,33.83,-118.33,1000 W Carson St,Harbor - UCLA Medical Center,Short Term Acute Care Hospital,Torrance,CA
427,6059,California,33.82522170000004,-117.9950032,3033 W Orange Ave,West Anaheim Medical Center,Short Term Acute Care Hospital,Anaheim,CA
428,6059,California,33.70046640000004,-117.95574519999997,18111 Brookhurst St,Orange Coast Medical Center (FKA Orange Coast Memorial Medical Center),Short Term Acute Care Hospital,Fountain Valley,CA
429,6059,California,33.887082200000066,-117.843323,1301 N Rose Dr,Placentia-Linda Hospital,Short Term Acute Care Hospital,Placentia,CA
430,6059,California,33.847533,-118.038414,7901 Walker St,La Palma Intercommunity Hospital,Short Term Acute Care Hospital,La Palma,CA
431,6059,California,33.85208230000006,-117.84413249999994,3440 E La Palma Ave,Orange County - Anaheim Medical Center,Short Term Acute Care Hospital,Anaheim,CA
432,6059,California,33.6089,-117.7087,24451 Health Center Dr,Saddleback Medical Center (FKA Saddleback Memorial Medical Center - Laguna Hills),Short Term Acute Care Hospital,Laguna Hills,CA
433,6059,California,33.81983440000005,-117.90945119999998,1025 S Anaheim Blvd,Anaheim Global Medical Center (FKA Western Medical Center Hospital Anaheim),Short Term Acute Care Hospital,Anaheim,CA
434,6059,California,33.788612400000034,-117.8262888,2601 E Chapman Ave,Chapman Global Medical Center (FKA Chapman Medical Center),Short Term Acute Care Hospital,Orange,CA
435,6059,California,33.754283900000075,-117.83280059999998,1001 N Tustin Ave,Orange County Global Medical Center (FKA Western Medical Center Santa Ana),Short Term Acute Care Hospital,Santa Ana,CA
436,6059,California,33.71105830000005,-117.88519019999995,2701 S Bristol St,South Coast Global Medical Center (FKA Coastal Communities Hospital),Short Term Acute Care Hospital,Santa Ana,CA
437,6037,California,33.92933190000008,-118.158594,7601 Imperial Hwy,Rancho Los Amigos National Rehabilitation Center,Short Term Acute Care Hospital,Downey,CA
438,6061,California,38.89656540000004,-121.07689009999996,11815 Education St,Sutter Auburn Faith Hospital,Short Term Acute Care Hospital,Auburn,CA
439,6061,California,38.766251100000034,-121.24922339999996,1 Medical Plaza Pl,Sutter Roseville Medical Center,Short Term Acute Care Hospital,Roseville,CA
440,6063,California,39.80563860000007,-120.46231889999996,500 1st Ave,Eastern Plumas Hospital - Portola Campus,Critical Access Hospital,Portola,CA
441,6063,California,39.93893620000006,-120.96213189999996,1065 Bucks Lake Rd,Plumas District Hospital,Critical Access Hospital,Quincy,CA
442,6063,California,40.273395,-121.210968,130 Brentwood Dr,Seneca Healthcare District Hospital,Critical Access Hospital,Chester,CA
443,6065,California,33.89613840000004,-117.18609809999998,27300 Iris Ave,Moreno Valley Medical Center,Short Term Acute Care Hospital,Moreno Valley,CA
444,6065,California,33.71897720000004,-117.16815179999998,28400 McCall Blvd,Menifee Global Medical Center (FKA Menifee Valley Medical Center),Short Term Acute Care Hospital,Menifee,CA
445,6065,California,33.90462140000005,-117.46904839999996,10800 Magnolia Ave,Riverside Medical Center,Short Term Acute Care Hospital,Riverside,CA
446,6065,California,33.76349860000005,-116.40541049999996,39000 Bob Hope Dr,Eisenhower Health,Short Term Acute Care Hospital,Rancho Mirage,CA
447,6065,California,33.706110900000056,-116.23535269999996,47111 Monroe St,JFK Memorial Hospital,Short Term Acute Care Hospital,Indio,CA
448,6065,California,33.61294810000004,-114.59507169999996,250 N 1st St,Palo Verde Hospital,Short Term Acute Care Hospital,Blythe,CA
449,6065,California,33.75037080000004,-116.96013029999996,1117 E Devonshire Ave,Hemet Valley Medical Center,Short Term Acute Care Hospital,Hemet,CA
450,6065,California,33.87277950000004,-117.56831329999994,800 S Main St,Corona Regional Medical Center - Main Street Campus,Short Term Acute Care Hospital,Corona,CA
451,6065,California,33.91024710000005,-117.19894639999995,26520 Cactus Ave,Riverside University Health System Medical Center (FKA Riverside County Regional Medical Center),Short Term Acute Care Hospital,Moreno Valley,CA
452,6065,California,33.838731,-116.543459,1150 N Indian Canyon Dr,Desert Regional Medical Center,Short Term Acute Care Hospital,Palm Springs,CA
453,6065,California,33.92696820000003,-117.43981659999996,3865 Jackson St,Parkview Community Hospital Medical Center,Short Term Acute Care Hospital,Riverside,CA
454,6065,California,33.931687400000044,-116.94614719999998,600 N Highland Springs Ave,San Gorgonio Memorial Hospital,Short Term Acute Care Hospital,Banning,CA
455,6065,California,33.97722130000005,-117.3815694,4445 Magnolia Ave,Riverside Community Hospital,Short Term Acute Care Hospital,Riverside,CA
456,6067,California,38.56981810000008,-121.45366479999996,4001 J St,Mercy General Hospital,Short Term Acute Care Hospital,Sacramento,CA
457,6067,California,38.57112990000008,-121.46949489999996,2825 Capitol Ave,Sutter Medical Center - Ose Adams Medical Pavilion (FKA Sutter General Hospital),Short Term Acute Care Hospital,Sacramento,CA
458,6067,California,38.57306010000008,-121.29551549999996,10535 Hospital Way,VA Northern California Health Care System Valley Division - Sacramento VA Medical Center,VA Hospital,Mather,CA
459,6067,California,38.60138350000005,-121.393137,2025 Morse Ave,Kaiser Permanente - Sacramento Medical Center,Short Term Acute Care Hospital,Sacramento,CA
460,6067,California,38.670333,-121.14584609999996,1650 Creekside Dr,Mercy Hospital of Folsom,Short Term Acute Care Hospital,Folsom,CA
461,6067,California,38.66933720000003,-121.31368219999996,6501 Coyle Ave,Mercy San Juan Medical Center,Short Term Acute Care Hospital,Carmichael,CA
462,6067,California,38.46991040000006,-121.42164119999995,6600 Bruceville Rd,Kaiser Permanente - South Sacramento Medical Center,Short Term Acute Care Hospital,Sacramento,CA
463,6067,California,38.46317370000003,-121.41636379999994,7500 Hospital Dr,Methodist Hospital of Sacramento,Short Term Acute Care Hospital,Sacramento,CA
464,6067,California,38.55490230000004,-121.45675049999994,2315 Stockton Blvd,University of California Davis Medical Center (AKA UC Davis Medical Center),Short Term Acute Care Hospital,Sacramento,CA
465,6069,California,36.83389850000003,-121.3861055,911 Sunset Dr,Hazel Hawkins Memorial Hospital,Critical Access Hospital,Hollister,CA
466,6071,California,34.89217130000003,-117.01669689999994,820 E Mountain View St,Barstow Community Hospital,Short Term Acute Care Hospital,Barstow,CA
467,6071,California,34.54184760000004,-117.26556359999996,18300 Us Highway 18,St Mary Medical Center,Short Term Acute Care Hospital,Apple Valley,CA
468,6071,California,34.049451900000065,-117.2641774,11234 Anderson St,Loma Linda University Medical Center,Short Term Acute Care Hospital,Loma Linda,CA
469,6071,California,34.07405310000007,-117.351059,400 N Pepper Ave,Arrowhead Regional Medical Center,Short Term Acute Care Hospital,Colton,CA
470,6071,California,34.13268060000007,-116.27618489999998,6601 White Feather Rd,Hi Desert Medical Center,Short Term Acute Care Hospital,Joshua Tree,CA
471,6071,California,34.036537200000055,-117.20517409999997,350 Terracina Blvd,Redlands Community Hospital,Short Term Acute Care Hospital,Redlands,CA
472,6071,California,34.10190410000007,-117.63743359999997,999 San Bernardino Rd,San Antonio Regional Hospital (FKA San Antonio Community Hospital),Short Term Acute Care Hospital,Upland,CA
473,6071,California,34.131408700000065,-117.3217772,1805 Medical Center Dr,Community Hospital of San Bernardino,Short Term Acute Care Hospital,San Bernardino,CA
474,6071,California,34.13483710000003,-117.27698829999996,2101 N Waterman Ave,St Bernardine Medical Center,Short Term Acute Care Hospital,San Bernardino,CA
475,6071,California,34.072777200000075,-117.43561079999996,9961 Sierra Ave,Fontana Medical Center,Short Term Acute Care Hospital,Fontana,CA
476,6071,California,34.02556420000008,-117.686109,5451 Walnut Ave,Chino Valley Medical Center,Short Term Acute Care Hospital,Chino,CA
477,6071,California,34.24651110000008,-116.88849509999994,41870 Garstin Dr,Bear Valley Community Hospital (AKA Bear Valley Community Healthcare District),Critical Access Hospital,Big Bear Lake,CA
478,6071,California,34.07711,-117.696588,5000 San Bernardino St,Montclair Hospital Medical Center,Short Term Acute Care Hospital,Montclair,CA
479,6071,California,34.049982500000056,-117.24981219999997,11201 Benton St,VA Loma Linda Healthcare System (AKA Jerry L Pettis Memorial Veterans Hospital),VA Hospital,Loma Linda,CA
480,6071,California,34.47213810000005,-117.29799449999996,16850 Bear Valley Rd,Desert Valley Hospital,Short Term Acute Care Hospital,Victorville,CA
481,6071,California,34.528006600000026,-117.293868,15248 Eleventh St,Victor Valley Global Medical Center,Short Term Acute Care Hospital,Victorville,CA
482,6071,California,34.83313570000007,-114.61767579999996,1401 Bailey Ave,Colorado River Medical Center,Critical Access Hospital,Needles,CA
483,6071,California,34.2654,-117.1685,29101 Hospital Rd,Mountains Community Hospital,Critical Access Hospital,Lake Arrowhead,CA
484,6073,California,32.79142710000008,-117.09513969999996,4647 Zion Ave,Kaiser Permanente Zion Medical Center,Short Term Acute Care Hospital,San Diego,CA
485,6073,California,33.03690080000007,-117.28391259999997,354 Santa Fe Dr,Scripps Memorial Hospital Encinitas,Short Term Acute Care Hospital,Encinitas,CA
486,6073,California,32.89677990000007,-117.24281359999998,10666 N Torrey Pines Rd,Scripps Green Hospital,Short Term Acute Care Hospital,La Jolla,CA
487,6073,California,32.875129800000025,-117.23238809999998,3350 La Jolla Village Dr,VA San Diego Healthcare System,VA Hospital,San Diego,CA
488,6073,California,32.77664150000004,-117.05731879999996,6655 Alvarado Rd,Alvarado Hospital Medical Center,Short Term Acute Care Hospital,San Diego,CA
489,6073,California,32.996457200000066,-117.05610059999998,15615 Pomerado Rd,Palomar Medical Center Poway (FKA Pomerado Hospital),Short Term Acute Care Hospital,Poway,CA
490,6073,California,33.12485950000007,-117.07582259999998,555 E Valley Pkwy,Palomar Medical Center Downtown Escondido (FKA Palomar Health Downtown Campus),Short Term Acute Care Hospital,Escondido,CA
491,6073,California,33.18564840000005,-117.29043589999998,4002 Vista Way,Tri-City Medical Center,Short Term Acute Care Hospital,Oceanside,CA
492,6073,California,32.75156560000005,-117.16039,4077 5th Ave,Scripps Mercy Hospital San Diego,Short Term Acute Care Hospital,San Diego,CA
493,6073,California,32.79967590000007,-117.15460009999998,7901 Frost St,Sharp Memorial Hospital,Short Term Acute Care Hospital,San Diego,CA
494,6073,California,32.69444710000005,-117.168661,250 Prospect Pl,Sharp Coronado Hospital,Short Term Acute Care Hospital,Coronado,CA
495,6073,California,32.61888340000007,-117.0226353,751 Medical Center Ct,Sharp Chula Vista Medical Center,Short Term Acute Care Hospital,Chula Vista,CA
496,6073,California,32.88515770000004,-117.22554259999998,9888 Genesee Ave,Scripps Memorial Hospital La Jolla,Short Term Acute Care Hospital,La Jolla,CA
497,6073,California,32.685113200000046,-117.08288519999996,2400 E 4th St,Paradise Valley Hospital,Short Term Acute Care Hospital,National City,CA
498,6073,California,32.75426980000003,-117.166135,200 W Arbor Dr,UC San Diego Medical Center - Hillcrest,Short Term Acute Care Hospital,San Diego,CA
499,6073,California,32.78101250000003,-117.00741259999997,5555 Grossmont Center Dr,Sharp Grossmont Hospital,Short Term Acute Care Hospital,La Mesa,CA
500,6075,California,37.74770250000006,-122.42066719999995,3555 Cesar Chavez,California Pacific Medical Center - Mission Bernal Campus (FKA California Pacific Medical Center - St Lukes Campus),Short Term Acute Care Hospital,San Francisco,CA
501,6075,California,37.768193,-122.435709,45 Castro St,California Pacific Medical Center - Davies Campus,Short Term Acute Care Hospital,San Francisco,CA
502,6075,California,37.75572650000004,-122.40473809999996,1001 Potrero Ave,Zuckerberg San Francisco General Hospital (FKA San Francisco General Hospital),Short Term Acute Care Hospital,San Francisco,CA
503,6075,California,37.78245880000003,-122.4430966,2425 Geary Blvd,Kaiser Permanente - San Francisco Medical Center,Short Term Acute Care Hospital,San Francisco,CA
504,6075,California,37.78937990000003,-122.41672939999997,900 Hyde St,Saint Francis Memorial Hospital,Short Term Acute Care Hospital,San Francisco,CA
505,6075,California,37.74888960000004,-122.457074,375 Laguna Honda Blvd,Laguna Honda Hospital and Rehabilitation Center,Short Term Acute Care Hospital,San Francisco,CA
506,6075,California,37.77407490000007,-122.45388929999996,450 Stanyan St,St Marys Medical Center,Short Term Acute Care Hospital,San Francisco,CA
507,6075,California,37.76455420000008,-122.45725079999994,400 Parnassus Ave,UCSF Helen Diller Medical Center at Parnassus Heights,Short Term Acute Care Hospital,San Francisco,CA
508,6075,California,37.79554060000004,-122.40912989999998,845 Jackson St,Chinese Hospital,Short Term Acute Care Hospital,San Francisco,CA
509,6075,California,37.78200650000008,-122.50505109999996,4150 Clement St,San Francisco VA Health Care System - San Francisco VA Medical Center,VA Hospital,San Francisco,CA
510,6077,California,38.12146790000003,-121.2869098,975 S Fairmont Ave,Adventist Health Lodi Memorial,Short Term Acute Care Hospital,Lodi,CA
511,6077,California,37.79809130000007,-121.24601239999998,1777 W Yosemite Ave,Kaiser Permanente - Manteca Medical Center,Short Term Acute Care Hospital,Manteca,CA
512,6077,California,37.88671350000004,-121.28263139999996,500 W Hospital Rd,San Joaquin General Hospital,Short Term Acute Care Hospital,French Camp,CA
513,6077,California,37.96162190000007,-121.30099259999996,525 W Acacia St,Dameron Hospital,Short Term Acute Care Hospital,Stockton,CA
514,6077,California,37.96988310000006,-121.28866689999997,1800 N California St,St Josephs Medical Center,Short Term Acute Care Hospital,Stockton,CA
515,6077,California,37.80155,-121.197502,1205 E North St,Doctors Hospital of Manteca,Short Term Acute Care Hospital,Manteca,CA
516,6077,California,37.74401160000008,-121.43430739999997,1420 N Tracy Blvd,Sutter Tracy Community Hospital,Short Term Acute Care Hospital,Tracy,CA
517,6079,California,35.27817090000008,-120.65115579999996,1911 Johnson Ave,French Hospital Medical Center,Short Term Acute Care Hospital,San Luis Obispo,CA
518,6079,California,35.55497610000003,-120.71936759999994,1100 Las Tablas Rd,Twin Cities Community Hospital,Short Term Acute Care Hospital,Templeton,CA
519,6079,California,35.29224110000007,-120.665834,1010 Murray Ave,Sierra Vista Regional Medical Center (FKA Sierra Vista Regional Medical Center),Short Term Acute Care Hospital,San Luis Obispo,CA
520,6079,California,35.11363760000006,-120.59077219999996,345 S Halcyon Rd,Arroyo Grande Community Hospital,Short Term Acute Care Hospital,Arroyo Grande,CA
521,6081,California,37.59210250000007,-122.38334229999998,1501 Trousdale Dr,Mills-Peninsula Medical Center,Short Term Acute Care Hospital,Burlingame,CA
522,6081,California,37.48911850000008,-122.22515479999998,1100 Veterans Blvd,Kaiser Permanente - Redwood City Medical Center,Short Term Acute Care Hospital,Redwood City,CA
523,6081,California,37.47954230000005,-122.25455619999995,170 Alameda De Las Pulgas,Sequoia Hospital,Short Term Acute Care Hospital,Redwood City,CA
524,6081,California,37.68013470000005,-122.4740564,1900 Sullivan Ave,Seton Medical Center,Short Term Acute Care Hospital,Daly City,CA
525,6081,California,37.531268200000056,-122.29929819999997,222 W 39th Ave,San Mateo Medical Center (AKA San Mateo County Health System),Short Term Acute Care Hospital,San Mateo,CA
526,6081,California,37.659206,-122.4391154,1200 El Camino Real,Kaiser Permanente - South San Francisco Medical Center,Short Term Acute Care Hospital,South San Francisco,CA
527,6083,California,34.64113750000007,-120.43951909999998,1515 E Ocean Ave,Lompoc Valley Medical Center Hospital,Short Term Acute Care Hospital,Lompoc,CA
528,6083,California,34.95092010000008,-120.41318529999997,1400 E Church St,Marian Regional Medical Center,Short Term Acute Care Hospital,Santa Maria,CA
529,6083,California,34.43341940000005,-119.81041039999997,351 S Patterson Ave,Goleta Valley Cottage Hospital,Short Term Acute Care Hospital,Goleta,CA
530,6083,California,34.42990660000004,-119.72336009999998,400 W Pueblo St,Santa Barbara Cottage Hospital,Short Term Acute Care Hospital,Santa Barbara,CA
531,6083,California,34.60187640000004,-120.12618019999996,2050 Viborg Rd,Santa Ynez Valley Cottage Hospital,Critical Access Hospital,Solvang,CA
532,6085,California,37.43635610000007,-122.17504889999998,725 Welch Rd,Lucile Packard Childrens Hospital Stanford (AKA Stanford Childrens Health),Childrens Hospital,Palo Alto,CA
533,6085,California,37.25174750000008,-121.94668889999996,2425 Samaritan Dr,Good Samaritan Hospital,Short Term Acute Care Hospital,San Jose,CA
534,6085,California,37.43435510000006,-122.17709089999994,500 Pasteur Dr,Stanford Hospital,Short Term Acute Care Hospital,Palo Alto,CA
535,6085,California,37.23980410000007,-121.8002512,250 Hospital Pkwy,Kaiser Permanente - San Jose Medical Center,Short Term Acute Care Hospital,San Jose,CA
536,6085,California,37.036716700000056,-121.57116079999996,9400 N Name Uno,St Louise Regional Hospital,Short Term Acute Care Hospital,Gilroy,CA
537,6085,California,37.40540730000004,-122.14000889999994,3801 Miranda Ave,VA Palo Alto Health Care System - Palo Alto Division,VA Hospital,Palo Alto,CA
538,6085,California,37.36947720000006,-122.07991169999995,2500 Grant Rd,El Camino Hospital - Mountain View Campus,Short Term Acute Care Hospital,Mountain View,CA
539,6085,California,37.335609600000055,-121.99884909999996,700 Lawrence Expy,Kaiser Permanente - Santa Clara Medical Center,Short Term Acute Care Hospital,Santa Clara,CA
540,6085,California,37.36220570000006,-121.84896669999996,225 N Jackson Ave,Regional Medical Center of San Jose,Short Term Acute Care Hospital,San Jose,CA
541,6085,California,37.32775520000007,-121.93837889999998,2105 Forest Ave,OConnor Hospital,Short Term Acute Care Hospital,San Jose,CA
542,6085,California,37.31285690000004,-121.9332672,751 S Bascom Ave,Santa Clara Valley Medical Center,Short Term Acute Care Hospital,San Jose,CA
543,6087,California,36.92664720000005,-121.79283589999994,75 Neilson St,Watsonville Community Hospital,Short Term Acute Care Hospital,Watsonville,CA
544,6087,California,36.990166300000055,-121.98366689999996,1555 Soquel Dr,Dominican Hospital,Short Term Acute Care Hospital,Santa Cruz,CA
545,6087,California,36.987682,-121.97746039999998,2900 Chanticleer Ave,Sutter Maternity & Surgery Center of Santa Cruz,Short Term Acute Care Hospital,Santa Cruz,CA
546,6089,California,40.58555410000002,-122.38775729999998,1100 Butte St,Shasta Regional Medical Center,Short Term Acute Care Hospital,Redding,CA
547,6089,California,40.58590870000006,-122.416861,2900 Eureka Way,Patients Hospital of Redding,Short Term Acute Care Hospital,Redding,CA
548,6089,California,40.571437,-122.39606619999996,2175 Rosaline Ave,Mercy Medical Center Redding,Short Term Acute Care Hospital,Redding,CA
549,6089,California,41.023554800000056,-121.42389659999998,43563 Hwy 299 E,Mayers Memorial Hospital,Critical Access Hospital,Fall River Mills,CA
550,6093,California,41.31866140000005,-122.32119939999995,914 Pine St,Mercy Medical Center Mt Shasta,Critical Access Hospital,Mount Shasta,CA
551,6093,California,41.71932010000006,-122.64569429999996,444 Bruce St,Fairchild Medical Center,Critical Access Hospital,Yreka,CA
552,6095,California,38.12767,-122.24844319999994,975 Sereno Dr,Kaiser Permanente - Vallejo Medical Center,Short Term Acute Care Hospital,Vallejo,CA
553,6095,California,38.13128880000005,-122.23733729999998,300 Hospital Dr,Sutter Solano Medical Center,Short Term Acute Care Hospital,Vallejo,CA
554,6095,California,38.26200910000006,-122.0473434,1200 B Gale Wilson Blvd,NorthBay Medical Center,Short Term Acute Care Hospital,Fairfield,CA
555,6097,California,38.39703120000007,-122.8190115,501 Petaluma Ave,Sonoma Specialty Hospital (FKA Sonoma West Medical Center Palm Drive Hospital),Long Term Acute Care Hospital,Sebastopol,CA
556,6097,California,38.47212,-122.72701409999996,401 Bicentennial Way,Kaiser Permanente - Santa Rosa Medical Center,Short Term Acute Care Hospital,Santa Rosa,CA
557,6097,California,38.28815030000004,-122.46568759999997,347 Andrieux St,Sonoma Valley Hospital,Short Term Acute Care Hospital,Sonoma,CA
558,6097,California,38.25459,-122.63165369999996,400 N Mcdowell Blvd,Petaluma Valley Hospital,Short Term Acute Care Hospital,Petaluma,CA
559,6097,California,38.443758900000034,-122.7011068,1165 Montgomery Dr,Santa Rosa Memorial Hospital,Short Term Acute Care Hospital,Santa Rosa,CA
560,6097,California,38.52870540000004,-122.723816,30 Mark West Springs Rd,Sutter Santa Rosa Regional Hospital (FKA Sutter Medical Center of Santa Rosa),Short Term Acute Care Hospital,Santa Rosa,CA
561,6097,California,38.627093,-122.86432509999996,1375 University St,Healdsburg District Hospital,Critical Access Hospital,Healdsburg,CA
562,6099,California,37.51176260000005,-120.83895029999996,825 Delbon Ave,Emanuel Medical Center,Short Term Acute Care Hospital,Turlock,CA
563,6099,California,37.75754370000004,-120.86099839999996,350 S Oak Ave,Oak Valley District Hospital,Short Term Acute Care Hospital,Oakdale,CA
564,6099,California,37.66479780000003,-120.95832209999998,1421 Oakdale Rd,Stanislaus Surgical Hospital,Short Term Acute Care Hospital,Modesto,CA
565,6099,California,37.668701,-120.97457549999996,1700 Coffee Rd,Memorial Medical Center,Short Term Acute Care Hospital,Modesto,CA
566,6099,California,37.66594980000008,-120.9974006,1441 Florida Ave,Doctors Medical Center Modesto,Short Term Acute Care Hospital,Modesto,CA
567,6101,California,39.13181750000007,-121.61343329999994,455 Plumas Blvd,Sutter Surgical Hospital North Valley,Short Term Acute Care Hospital,Yuba City,CA
568,6103,California,40.14855190000003,-122.21901959999995,2550 Sister Mary Columba Dr,St Elizabeth Community Hospital,Short Term Acute Care Hospital,Red Bluff,CA
569,6105,California,40.7399,-122.9419,60 Easter Ave,Trinity Hospital,Critical Access Hospital,Weaverville,CA
570,6107,California,36.328572,-119.29495819999994,400 W Mineral King Ave,Kaweah Delta Medical Center,Short Term Acute Care Hospital,Visalia,CA
571,6107,California,36.22113290000004,-119.33849209999994,869 N Cherry St,Adventist Health Tulare (FKA Tulare Regional Medical Center),Short Term Acute Care Hospital,Tulare,CA
572,6107,California,36.06877680000008,-119.02720339999996,465 W Putnam Ave,Sierra View Medical Center (FKA Sierra View District Hospital),Short Term Acute Care Hospital,Porterville,CA
573,6109,California,37.97723380000008,-120.3712182,1000 Greenley Rd,Adventist Health Sonora (FKA Sonora Regional Medical Center),Short Term Acute Care Hospital,Sonora,CA
574,6111,California,34.289206500000034,-118.745137,2975 Sycamore Dr,Adventist Health Simi Valley (FKA Simi Valley Hospital & Health Care Services),Short Term Acute Care Hospital,Simi Valley,CA
575,6111,California,34.21664240000007,-119.15564839999996,1600 N Rose Ave,St Johns Regional Medical Center,Short Term Acute Care Hospital,Oxnard,CA
576,6111,California,34.27719940000003,-119.25298319999996,300 Hillmont Ave,Ventura County Medical Center,Short Term Acute Care Hospital,Ventura,CA
577,6111,California,34.24347880000005,-119.0200789,2309 Antonio Ave,St Johns Pleasant Valley Hospital,Short Term Acute Care Hospital,Camarillo,CA
578,6111,California,34.27449910000007,-119.25772889999996,147 N Brent St,Community Memorial Hospital,Short Term Acute Care Hospital,Ventura,CA
579,6111,California,34.20677960000006,-118.8830898,215 W Janss Rd,Los Robles Health System - Los Robles Regional Medical Center,Short Term Acute Care Hospital,Thousand Oaks,CA
580,6111,California,34.44291320000008,-119.26440669999994,1306 Maricopa Hwy,Ojai Valley Community Hospital,Critical Access Hospital,Ojai,CA
581,6113,California,38.562604400000055,-121.77089589999996,2000 Sutter Pl,Sutter Davis Hospital,Short Term Acute Care Hospital,Davis,CA
582,6113,California,38.66409020000003,-121.79209129999998,1325 Cottonwood St,Woodland Memorial Hospital,Short Term Acute Care Hospital,Woodland,CA
583,6115,California,39.138241,-121.59437249999996,726 4th St,Rideout - Adventist Health and Rideout (FKA Rideout Memorial Hospital),Short Term Acute Care Hospital,Marysville,CA
584,8001,Colorado,39.963935400000025,-104.768639,1600 Prairie Center Pkwy,Platte Valley Medical Center,Short Term Acute Care Hospital,Brighton,CO
585,8001,Colorado,39.742629400000055,-104.84202879999998,12605 E 16th Ave,UCHealth University of Colorado Hospital,Short Term Acute Care Hospital,Aurora,CO
586,8001,Colorado,39.86355510000004,-104.98570889999996,9191 Grant St,North Suburban Medical Center,Short Term Acute Care Hospital,Thornton,CO
587,8001,Colorado,39.74224950000007,-104.83493109999996,13123 E 16th Ave,Childrens Hospital Colorado - Anschutz Medical Campus,Childrens Hospital,Aurora,CO
588,8003,Colorado,37.47247870000007,-105.882886,106 Blanca Ave,SLV Health Regional Medical Center,Short Term Acute Care Hospital,Alamosa,CO
589,8005,Colorado,39.68860370000005,-104.83174179999996,1501 S Potomac St,The Medical Center of Aurora - Main Campus,Short Term Acute Care Hospital,Aurora,CO
590,8005,Colorado,39.65417030000003,-104.98071769999996,501 E Hampden Ave,Swedish Medical Center,Short Term Acute Care Hospital,Englewood,CO
591,8035,Colorado,39.529099,-104.871212,10101 Ridgegate Pkwy,Sky Ridge Medical Center,Short Term Acute Care Hospital,Lone Tree,CO
592,8005,Colorado,39.57628840000007,-104.986104,7700 S Broadway,Littleton Adventist Hospital,Short Term Acute Care Hospital,Littleton,CO
593,8007,Colorado,37.25214290000002,-107.079137,95 S Pagosa Blvd,Pagosa Springs Medical Center (FKA Pagosa Mountain Hospital),Critical Access Hospital,Pagosa Springs,CO
594,8013,Colorado,39.970519,-105.08652149999996,200 Exempla Cir,Good Samaritan Medical Center (FKA Exempla Good Samaritan Medical Center LLC),Short Term Acute Care Hospital,Lafayette,CO
595,8013,Colorado,39.951933300000064,-105.1517462,100 Health Park Dr,Avista Adventist Hospital,Short Term Acute Care Hospital,Louisville,CO
596,8013,Colorado,40.18221950000003,-105.12607829999996,1950 Mountain View Ave,Longmont United Hospital,Short Term Acute Care Hospital,Longmont,CO
597,8015,Colorado,38.54315580000008,-106.0088247,1000 Rush Dr,Heart of the Rockies Regional Medical Center,Critical Access Hospital,Salida,CO
598,8017,Colorado,38.8257,-102.3555,602 N 6th St W,Keefe Memorial Hospital,Short Term Acute Care Hospital,Cheyenne Wells,CO
599,8029,Colorado,38.74539990000005,-108.047,1501 E 3rd St,Delta County Memorial Hospital,Short Term Acute Care Hospital,Delta,CO
600,8031,Colorado,39.73907360000004,-104.94112119999994,1400 Jackson St,National Jewish Health,Short Term Acute Care Hospital,Denver,CO
601,8031,Colorado,39.732185,-104.93404969999996,4567 E 9th Ave,Rose Medical Center,Short Term Acute Care Hospital,Denver,CO
602,8031,Colorado,39.670038600000055,-104.97481949999997,2525 S Downing St,Porter Adventist Hospital,Short Term Acute Care Hospital,Denver,CO
603,8031,Colorado,39.74618820000006,-104.97172679999994,1375 E 19th Ave,Saint Joseph Hospital (FKA Exempla St Joseph Hospital),Short Term Acute Care Hospital,Denver,CO
604,8031,Colorado,39.72824040000006,-104.99108009999998,777 Bannock St,Denver Health Main Campus,Short Term Acute Care Hospital,Denver,CO
605,8031,Colorado,39.74704760000003,-104.9665169,1719 E 19th Ave,Presbyterian/St Lukes Medical Center,Short Term Acute Care Hospital,Denver,CO
606,8059,Colorado,39.71646510000005,-105.1294246,11600 W 2nd Pl,St Anthony Hospital,Short Term Acute Care Hospital,Lakewood,CO
607,8035,Colorado,39.548613300000056,-104.7710383,9395 Crown Crest Blvd,Parker Adventist Hospital,Short Term Acute Care Hospital,Parker,CO
608,8037,Colorado,39.64352080000003,-106.38226629999996,181 W Meadow Dr,Vail Health (FKA Vail Valley Medical Center),Short Term Acute Care Hospital,Vail,CO
609,8041,Colorado,38.839413,-104.7993967,1400 E Boulder St,UCHealth Memorial Hospital Central,Short Term Acute Care Hospital,Colorado Springs,CO
610,8041,Colorado,38.865536700000064,-104.821745,2222 N Nevada Ave,Penrose Hospital,Short Term Acute Care Hospital,Colorado Springs,CO
611,8043,Colorado,38.455663300000026,-105.229732,1338 Phay Ave,St Thomas More Hospital,Critical Access Hospital,Canon City,CO
612,8045,Colorado,39.53249530000005,-107.32150509999995,1906 Blake Ave,Valley View Hospital,Short Term Acute Care Hospital,Glenwood Springs,CO
613,8045,Colorado,39.52111310000004,-107.7700056,501 Airport Rd,Grand River Medical Center (AKA Grand River Health),Critical Access Hospital,Rifle,CO
614,8051,Colorado,38.55186250000003,-106.9249511,711 N Taylor St,Gunnison Valley Health,Critical Access Hospital,Gunnison,CO
615,8055,Colorado,37.60034380000008,-104.83175969999996,23500 Us Highway 160,Spanish Peaks Regional Health Center,Critical Access Hospital,Walsenburg,CO
616,8001,Colorado,39.95643730000006,-104.99119049999996,14300 Orchard Pkwy,St Anthony North Health Campus,Short Term Acute Care Hospital,Westminster,CO
617,8059,Colorado,39.76811210000005,-105.08989879999996,8300 W 38th Ave,Lutheran Medical Center (FKA Exempla Lutheran Medical Center),Short Term Acute Care Hospital,Wheat Ridge,CO
618,8063,Colorado,39.30300650000004,-102.27057579999996,286 16th St,Kit Carson County Memorial Hospital,Critical Access Hospital,Burlington,CO
619,8065,Colorado,39.24488990000003,-106.30151939999996,822 W 4th St,St Vincent General Hospital District,Critical Access Hospital,Leadville,CO
620,8067,Colorado,37.24807060000006,-107.87088269999998,575 Rivergate Ln,Animas Surgical Hospital,Short Term Acute Care Hospital,Durango,CO
621,8067,Colorado,37.23610180000003,-107.82556179999996,1010 Three Springs Blvd,Mercy Regional Medical Center,Short Term Acute Care Hospital,Durango,CO
622,8069,Colorado,40.41323650000004,-105.05132809999998,2000 Boise Ave,McKee Medical Center,Short Term Acute Care Hospital,Loveland,CO
623,8069,Colorado,40.57164840000007,-105.05665469999995,1024 S Lemay Ave,UCHealth Poudre Valley Hospital,Short Term Acute Care Hospital,Fort Collins,CO
624,8069,Colorado,40.37141990000004,-105.51501659999995,555 Prospect Ave,Estes Park Health (FKA Estes Park Medical Center),Critical Access Hospital,Estes Park,CO
625,8069,Colorado,40.41578160000006,-104.9972211,2500 Rocky Mountain Ave,UCHealth Medical Center of the Rockies,Short Term Acute Care Hospital,Loveland,CO
626,8071,Colorado,37.17329490000003,-104.48756569999996,410 Benedicta Ave,Mt San Rafael Hospital,Critical Access Hospital,Trinidad,CO
627,8075,Colorado,40.61239960000006,-103.22108429999996,615 Fairhurst St,Sterling Regional MedCenter,Short Term Acute Care Hospital,Sterling,CO
628,8077,Colorado,39.076286,-108.541018,2121 North Ave,VA Western Colorado Health Care System (AKA Grand Junction VA Medical Center),VA Hospital,Grand Junction,CO
629,8077,Colorado,39.10519720000008,-108.6152656,2351 G Rd,Community Hospital (AKA Colorado West Healthcare System),Short Term Acute Care Hospital,Grand Junction,CO
630,8077,Colorado,39.090481100000034,-108.5627055,2635 N 7th St,St Marys Medical Center (FKA St Marys Hospital and Medical Center),Short Term Acute Care Hospital,Grand Junction,CO
631,8081,Colorado,40.51865460000005,-107.58021559999996,750 Hospital Loop,Memorial Regional Health (FKA Memorial Hospital at Craig),Critical Access Hospital,Craig,CO
632,8083,Colorado,37.36215960000004,-108.57460919999994,1311 N Mildred Rd,Southwest Memorial Hospital,Critical Access Hospital,Cortez,CO
633,8085,Colorado,38.48002040000006,-107.86893879999997,800 S 3rd St,Montrose Memorial Hospital,Short Term Acute Care Hospital,Montrose,CO
634,8087,Colorado,40.259718700000064,-103.795364,1000 Lincoln St,Colorado Plains Medical Center,Short Term Acute Care Hospital,Fort Morgan,CO
635,8087,Colorado,40.25567860000007,-103.64947459999996,2400 Edison St,East Morgan County Hospital,Critical Access Hospital,Brush,CO
636,8089,Colorado,37.97880370000007,-103.54881779999994,1100 Carson Ave,Arkansas Valley Regional Medical Center,Critical Access Hospital,La Junta,CO
637,8095,Colorado,40.57926050000003,-102.29029419999996,1001 E Johnson St,Melissa Memorial Hospital (AKA East Phillips County Hospital District),Critical Access Hospital,Holyoke,CO
638,8097,Colorado,39.19054450000005,-106.83959369999997,401 Castle Creek Rd,Aspen Valley Hospital,Critical Access Hospital,Aspen,CO
639,8099,Colorado,38.069781300000045,-102.61049859999996,401 Kendall Dr,Prowers Medical Center,Critical Access Hospital,Lamar,CO
640,8101,Colorado,38.233881,-104.623987,1008 Minnequa Ave,St Mary-Corwin Medical Center,Short Term Acute Care Hospital,Pueblo,CO
641,8101,Colorado,38.28178310000004,-104.612694,400 W 16th St,Parkview Medical Center,Short Term Acute Care Hospital,Pueblo,CO
642,8103,Colorado,40.04700260000004,-107.88229679999996,100 Pioneers Medical Center Dr,Pioneers Medical Center,Critical Access Hospital,Meeker,CO
643,8103,Colorado,40.083193,-108.80146479999996,225 Eagle Crest St,Rangely District Hospital,Critical Access Hospital,Rangely,CO
644,8105,Colorado,37.6753,-106.3635,310 County Road 14,Rio Grande Hospital,Critical Access Hospital,Del Norte,CO
645,8107,Colorado,40.46333690000006,-106.81455589999996,1024 Central Park Dr,UCHealth Yampa Valley Medical Center,Short Term Acute Care Hospital,Steamboat Springs,CO
646,8117,Colorado,39.538528,-106.131031,340 Peak One Dr,St Anthony Summit Medical Center,Short Term Acute Care Hospital,Frisco,CO
647,8119,Colorado,38.97460420000005,-105.07449,16420 W Us Highway 24,UCHealth Pikes Peak Regional Hospital,Critical Access Hospital,Woodland Park,CO
648,8123,Colorado,40.41402530000005,-104.65224009999996,1801 16th St,North Colorado Medical Center,Short Term Acute Care Hospital,Greeley,CO
649,8125,Colorado,40.076215500000046,-102.23485479999994,1017 W 7th St,Wray Community District Hospital,Critical Access Hospital,Wray,CO
650,8125,Colorado,40.12036020000005,-102.73703489999995,1000 W 8th Ave,Yuma District Hospital,Critical Access Hospital,Yuma,CO
651,9001,Connecticut,41.055853600000034,-73.55386479999999,1 Hospital Plz,Stamford Hospital (AKA Stamford Health),Short Term Acute Care Hospital,Stamford,CT
652,9001,Connecticut,41.201187,-73.20165349999996,2800 Main St,St Vincents Medical Center,Short Term Acute Care Hospital,Bridgeport,CT
653,9001,Connecticut,41.18898730000007,-73.16643619999996,267 Grant St,Bridgeport Hospital,Short Term Acute Care Hospital,Bridgeport,CT
654,9001,Connecticut,41.034308,-73.630196,5 Perryridge Rd,Greenwich Hospital,Short Term Acute Care Hospital,Greenwich,CT
655,9001,Connecticut,41.40508570000003,-73.446289,24 Hospital Ave,Danbury Hospital,Short Term Acute Care Hospital,Danbury,CT
656,9001,Connecticut,41.11112490000005,-73.42224169999997,34 Maple St,Norwalk Hospital,Short Term Acute Care Hospital,Norwalk,CT
657,9003,Connecticut,41.59465280000006,-72.87580679999996,81 Meriden Ave,The Hospital of Central Connecticut - Bradley Memorial Campus,Short Term Acute Care Hospital,Southington,CT
658,9003,Connecticut,41.7114,-72.8395,263 Farmington Ave,UConn John Dempsey Hospital (AKA UConn Health Center),Short Term Acute Care Hospital,Farmington,CT
659,9003,Connecticut,41.75412270000004,-72.67917929999999,80 Seymour St,Hartford Hospital,Short Term Acute Care Hospital,Hartford,CT
660,9003,Connecticut,41.78199710000007,-72.52552429999997,71 Haynes St,Manchester Memorial Hospital,Short Term Acute Care Hospital,Manchester,CT
661,9003,Connecticut,41.67595840000007,-72.93576259999998,41 Brewster Rd,Bristol Hospital,Short Term Acute Care Hospital,Bristol,CT
662,9003,Connecticut,41.80279210000003,-72.72948139999994,1 Abrahms Blvd,Hebrew Senior Care,Short Term Acute Care Hospital,West Hartford,CT
663,9003,Connecticut,41.75375420000006,-72.68182039999994,282 Washington St,Connecticut Childrens Medical Center,Childrens Hospital,Hartford,CT
664,9003,Connecticut,41.77496340000005,-72.69841179999997,114 Woodland St,Saint Francis Hospital and Medical Center,Short Term Acute Care Hospital,Hartford,CT
665,9005,Connecticut,41.88105180000008,-73.48149969999997,50 Hospital Hill Rd,Sharon Hospital,Short Term Acute Care Hospital,Sharon,CT
666,9005,Connecticut,41.79152650000003,-73.13382279999996,540 Litchfield St,Charlotte Hungerford Hospital,Short Term Acute Care Hospital,Torrington,CT
667,9007,Connecticut,41.55447140000007,-72.64706389999998,28 Crescent St,Middlesex Hospital (AKA Middlesex Health System),Short Term Acute Care Hospital,Middletown,CT
668,9009,Connecticut,41.21651820000005,-73.06530019999997,300 Seaside Ave,Bridgeport Hospital Milford Campus (FKA Milford Hospital),Short Term Acute Care Hospital,Milford,CT
669,9009,Connecticut,41.552948300000025,-73.03686629999999,56 Franklin St,Saint Marys Hospital,Short Term Acute Care Hospital,Waterbury,CT
670,9009,Connecticut,41.54011,-72.81888,435 Lewis Ave,MidState Medical Center,Short Term Acute Care Hospital,Meriden,CT
671,9009,Connecticut,41.30442290000008,-72.93556629999995,20 York St,Yale New Haven Hospital,Short Term Acute Care Hospital,New Haven,CT
672,9009,Connecticut,41.256806,-72.832842,100 Double Beach Rd,The Connecticut Hospice,Short Term Acute Care Hospital,Branford,CT
673,9009,Connecticut,41.46281210000007,-72.83649619999994,22 Masonic Ave,Masonicare Health Center,Short Term Acute Care Hospital,Wallingford,CT
674,9009,Connecticut,41.33501910000007,-73.08861989999997,130 Division St,Griffin Hospital,Short Term Acute Care Hospital,Derby,CT
675,9009,Connecticut,41.55911270000007,-73.05985259999994,64 Robbins St,Waterbury Hospital (AKA Waterbury HEALTH),Short Term Acute Care Hospital,Waterbury,CT
676,9011,Connecticut,41.33630780000004,-72.10560469999996,365 Montauk Ave,Lawrence & Memorial Hospital,Short Term Acute Care Hospital,New London,CT
677,9011,Connecticut,41.54324390000005,-72.08899529999997,326 Washington St,The William W Backus Hospital (AKA Backus Hospital),Short Term Acute Care Hospital,Norwich,CT
678,9013,Connecticut,41.86613550000004,-72.45046519999994,31 Union St,Rockville General Hospital,Short Term Acute Care Hospital,Vernon,CT
679,9013,Connecticut,41.978018,-72.39203439999994,201 Chestnut Hill Rd,Johnson Memorial Hospital,Short Term Acute Care Hospital,Stafford Springs,CT
680,9015,Connecticut,41.90654320000005,-71.91373549999997,320 Pomfret St,Day Kimball Hospital,Short Term Acute Care Hospital,Putnam,CT
681,9015,Connecticut,41.71734320000007,-72.22593289999998,112 Mansfield Ave,Windham Hospital (FKA Windham Community Memorial Hospital),Short Term Acute Care Hospital,Willimantic,CT
682,10001,Delaware,39.15129590000004,-75.52362019999998,640 S State St,Bayhealth Hospital - Kent Campus,Short Term Acute Care Hospital,Dover,DE
683,10003,Delaware,39.68819030000003,-75.67687619999998,4755 Ogletown Stanton Rd,Christiana Hospital,Short Term Acute Care Hospital,Newark,DE
684,10003,Delaware,39.74979480000008,-75.56665189999995,701 N Clayton St,Saint Francis Healthcare,Short Term Acute Care Hospital,Wilmington,DE
685,10005,Delaware,38.64230960000003,-75.60659649999997,801 Middleford Rd,TidalHealth Nanticoke (FKA Nanticoke Memorial Hospital),Short Term Acute Care Hospital,Seaford,DE
686,10005,Delaware,38.77195110000008,-75.14304559999994,424 Savannah Rd,Beebe Healthcare - Margaret H Rollins Lewes Campus (FKA Beebe Medical Center),Short Term Acute Care Hospital,Lewes,DE
687,11001,District of Columbia,38.901261,-77.05074119999995,900 23rd St Nw,George Washington University Hospital,Short Term Acute Care Hospital,Washington,DC
688,11001,District of Columbia,38.917530500000055,-77.02044169999994,2041 Georgia Ave NW,Howard University Hospital,Short Term Acute Care Hospital,Washington,DC
689,11001,District of Columbia,38.91145320000004,-77.07527479999999,3800 Reservoir Rd NW,MedStar Georgetown University Hospital,Short Term Acute Care Hospital,Washington,DC
690,11001,District of Columbia,38.936468700000034,-77.10914349999996,5255 Loughboro Rd Nw,Sibley Memorial Hospital,Short Term Acute Care Hospital,Washington,DC
691,11001,District of Columbia,38.835939300000064,-76.98499359999994,1310 Southern Ave SE,United Medical Center (AKA Not for Profit Hospital Corporation - Closing 2023),Short Term Acute Care Hospital,Washington,DC
692,11001,District of Columbia,38.92950040000005,-77.01449849999995,110 Irving St NW,MedStar Washington Hospital Center,Short Term Acute Care Hospital,Washington,DC
693,11001,District of Columbia,38.92731070000008,-77.014524,111 Michigan Ave Nw,Childrens National Medical Center (AKA Childrens National Health System),Childrens Hospital,Washington,DC
694,12001,Florida,29.639952900000026,-82.34267419999998,1600 Sw Archer Rd,UF Health Shands Hospital (FKA Shands at the University of Florida),Short Term Acute Care Hospital,Gainesville,FL
695,12001,Florida,29.66030420000004,-82.41157209999994,6500 W Newberry Rd,North Florida Regional Medical Center,Short Term Acute Care Hospital,Gainesville,FL
696,12005,Florida,30.186569,-85.665132,449 W 23rd St,Gulf Coast Regional Medical Center,Short Term Acute Care Hospital,Panama City,FL
697,12005,Florida,30.159664400000054,-85.64862429999994,615 N Bonita Ave,Ascension Sacred Heart Hospital Bay (AKA Bay Medical Sacred Heart),Short Term Acute Care Hospital,Panama City,FL
698,12009,Florida,28.109221500000046,-80.674222,250 N Wickham Rd,Melbourne Regional Medical Center (FKA Wuesthoff Medical Center - Melbourne),Short Term Acute Care Hospital,Melbourne,FL
699,12009,Florida,28.630702900000077,-80.824111,951 N Washington Ave,Parrish Medical Center (AKA Parrish Healthcare),Short Term Acute Care Hospital,Titusville,FL
700,12009,Florida,28.088147900000024,-80.61430549999994,1350 Hickory St,Holmes Regional Medical Center,Short Term Acute Care Hospital,Melbourne,FL
701,12009,Florida,28.335356300000058,-80.72278189999997,110 Longwood Ave,Rockledge Regional Medical Center (FKA Wuesthoff Medical Center - Rockledge),Short Term Acute Care Hospital,Rockledge,FL
702,12009,Florida,28.360053900000025,-80.62309339999996,701 W Cocoa Beach Cswy,Cape Canaveral Hospital,Short Term Acute Care Hospital,Cocoa Beach,FL
703,12011,Florida,26.126496900000063,-80.20537669999999,401 NW 42nd Ave,Plantation General Hospital,Short Term Acute Care Hospital,Plantation,FL
704,12011,Florida,26.123543,-80.259512,8201 W Broward Blvd,Westside Regional Medical Center,Short Term Acute Care Hospital,Plantation,FL
705,12011,Florida,26.029695600000025,-80.24554909999995,7800 Sheridan St,Memorial Hospital Pembroke,Short Term Acute Care Hospital,Pembroke Pines,FL
706,12011,Florida,26.26310140000004,-80.20294859999996,2801 N State Road 7,Northwest Medical Center,Short Term Acute Care Hospital,Margate,FL
707,12011,Florida,26.206804800000043,-80.11101489999999,6401 N Federal Hwy,Broward Health Imperial Point (FKA Imperial Point Medical Center),Short Term Acute Care Hospital,Fort Lauderdale,FL
708,12011,Florida,26.211968200000054,-80.25426069999997,7201 N University Dr,University Hospital & Medical Center,Short Term Acute Care Hospital,Tamarac,FL
709,12011,Florida,26.27692860000008,-80.12147529999999,201 E Sample Rd,Broward Health North (FKA North Broward Medical Center),Short Term Acute Care Hospital,Deerfield Beach,FL
710,12011,Florida,26.18714370000004,-80.11993139999998,4725 N Federal Hwy,Holy Cross Hospital,Short Term Acute Care Hospital,Fort Lauderdale,FL
711,12011,Florida,26.018917200000036,-80.17972089999995,3501 Johnson St,Memorial Regional Hospital,Short Term Acute Care Hospital,Hollywood,FL
712,12011,Florida,26.102224200000023,-80.14078,1600 S Andrews Ave,Broward Health Medical Center (FKA Broward General Medical Center),Short Term Acute Care Hospital,Fort Lauderdale,FL
713,12011,Florida,26.08160040000007,-80.36376309999997,2950 Cleveland Clinic Blvd,Cleveland Clinic Florida,Short Term Acute Care Hospital,Weston,FL
714,12011,Florida,25.99088680000005,-80.37283869999999,1901 Sw 172nd Ave,Memorial Hospital Miramar,Short Term Acute Care Hospital,Miramar,FL
715,12011,Florida,26.268409200000065,-80.25571089999994,3000 Coral Hills Dr,Broward Health Coral Springs (FKA Coral Springs Medical Center),Short Term Acute Care Hospital,Coral Springs,FL
716,12011,Florida,26.014047,-80.30967639999994,703 N Flamingo Rd,Memorial Hospital West,Short Term Acute Care Hospital,Pembroke Pines,FL
717,12015,Florida,26.94062180000003,-82.04005819999998,809 E Marion Ave,Bayfront Health - Punta Gorda (FKA Charlotte Regional Medical Center),Short Term Acute Care Hospital,Punta Gorda,FL
718,12015,Florida,26.98902860000004,-82.09571829999999,2500 Harbor Blvd,Bayfront Health - Port Charlotte (FKA Peace River Regional Medical Center),Short Term Acute Care Hospital,Port Charlotte,FL
719,12015,Florida,26.988880900000023,-82.09885209999999,21298 Olean Blvd,Fawcett Memorial Hospital,Short Term Acute Care Hospital,Port Charlotte,FL
720,12017,Florida,28.952068300000064,-82.62453939999995,6201 N Suncoast Blvd,Bayfront Health - Seven Rivers (FKA Seven Rivers Regional Medical Center),Short Term Acute Care Hospital,Crystal River,FL
721,12017,Florida,28.833899400000064,-82.33586359999998,502 W Highland Blvd,Citrus Memorial Hospital,Short Term Acute Care Hospital,Inverness,FL
722,12019,Florida,30.165964400000064,-81.73762259999995,2001 Kingsley Ave,Orange Park Medical Center,Short Term Acute Care Hospital,Orange Park,FL
723,12021,Florida,26.213958900000023,-81.73202929999997,6101 Pine Ridge Rd,Physicians Regional Medical Center - Pine Ridge,Short Term Acute Care Hospital,Naples,FL
724,12023,Florida,30.18398380000008,-82.68634779999996,340 NW Commerce Dr,Lake City Medical Center,Short Term Acute Care Hospital,Lake City,FL
725,12027,Florida,27.226838900000075,-81.85029679999997,900 N Robert Ave,Desoto Memorial Hospital,Short Term Acute Care Hospital,Arcadia,FL
726,12031,Florida,30.287847300000067,-81.60116439999996,3625 University Blvd S,Memorial Hospital Jacksonville,Short Term Acute Care Hospital,Jacksonville,FL
727,12031,Florida,30.26279160000007,-81.44146079999996,4500 San Pablo Rd,Mayo Clinic Hospital - Florida,Short Term Acute Care Hospital,Jacksonville,FL
728,12031,Florida,30.273534900000072,-81.39816309999998,1350 13th Ave S,Baptist Medical Center Beaches,Short Term Acute Care Hospital,Jacksonville Beach,FL
729,12031,Florida,30.348622,-81.66413939999995,655 W 8th St,UF Health Jacksonville,Short Term Acute Care Hospital,Jacksonville,FL
730,12031,Florida,30.307202,-81.689871,1 Shircliff Way,Ascension St Vincents Riverside Hospital,Short Term Acute Care Hospital,Jacksonville,FL
731,12031,Florida,30.25377750000007,-81.58267469999998,4201 Belfort Rd,Ascension St Vincents Southside Hospital,Short Term Acute Care Hospital,Jacksonville,FL
732,12033,Florida,30.476728,-87.21151519999995,5151 N 9th Ave,Ascension Sacred Heart Hospital Pensacola,Short Term Acute Care Hospital,Pensacola,FL
733,12033,Florida,30.429481500000065,-87.23127529999994,1000 W Moreno St,Baptist Hospital,Short Term Acute Care Hospital,Pensacola,FL
734,12033,Florida,30.515835700000025,-87.21802039999994,8383 N Davis Hwy,West Florida Hospital (AKA West Florida Healthcare),Short Term Acute Care Hospital,Pensacola,FL
735,12035,Florida,29.47917990000008,-81.18943159999998,60 Memorial Medical Pkwy,AdventHealth Palm Coast (FKA Florida Hospital Flagler),Short Term Acute Care Hospital,Palm Coast,FL
736,12039,Florida,30.70632040000004,-84.84142079999998,100 N Main St,Florida State Hospital,Short Term Acute Care Hospital,Chattahoochee,FL
737,12049,Florida,27.539421300000072,-81.80727739999998,735 S 5th Ave,AdventHealth Wauchula (FKA Florida Hospital Wauchula),Critical Access Hospital,Wauchula,FL
738,12051,Florida,26.75332750000007,-80.94145079999998,524 W Sagamore Ave,Hendry Regional Medical Center,Critical Access Hospital,Clewiston,FL
739,12053,Florida,28.53665540000003,-82.53498979999995,11375 Cortez Blvd,Oak Hill Hospital,Short Term Acute Care Hospital,Brooksville,FL
740,12053,Florida,28.5385,-82.44303859999997,17240 Cortez Blvd,Bayfront Health - Brooksville (FKA Brooksville Regional Hospital),Short Term Acute Care Hospital,Brooksville,FL
741,12055,Florida,27.465613500000075,-81.43296309999994,3600 S Highlands Ave,Highlands Regional Medical Center,Short Term Acute Care Hospital,Sebring,FL
742,12055,Florida,27.500009,-81.439625,4200 Sun N Lake Blvd,AdventHealth Sebring (FKA Florida Hospital Heartland Medical Center),Short Term Acute Care Hospital,Sebring,FL
743,12057,Florida,27.938126900000043,-82.45918469999998,1 Tampa General Cir,Tampa General Hospital (AKA Florida Health Sciences Center),Short Term Acute Care Hospital,Tampa,FL
744,12057,Florida,28.015678200000025,-82.13818909999998,301 N Alexander St,South Florida Baptist Hospital,Short Term Acute Care Hospital,Plant City,FL
745,12057,Florida,27.932747600000027,-82.28738549999997,119 Oakfield Dr,Brandon Regional Hospital,Short Term Acute Care Hospital,Brandon,FL
746,12057,Florida,28.06985970000005,-82.42233039999996,3100 E Fletcher Ave,AdventHealth Tampa (FKA Florida Hospital Tampa),Short Term Acute Care Hospital,Tampa,FL
747,12057,Florida,27.937898200000063,-82.48939929999995,2901 W Swann Ave,Memorial Hospital of Tampa (FKA IASIS Memorial Hospital of Tampa),Short Term Acute Care Hospital,Tampa,FL
748,12057,Florida,27.98148070000008,-82.48909309999993,3001 W Dr Martin Luther King Jr Blvd,St Josephs Hospital,Short Term Acute Care Hospital,Tampa,FL
749,12057,Florida,28.013460700000053,-82.50412249999994,7171 N Dale Mabry Hwy,AdventHealth Carrollwood (FKA Florida Hospital Carrollwood),Short Term Acute Care Hospital,Tampa,FL
750,12057,Florida,28.002690400000063,-82.574123,6001 Webb Rd,Tampa Community Hospital (FKA Town & Country Hospital),Short Term Acute Care Hospital,Tampa,FL
751,12057,Florida,27.713689200000037,-82.36528219999997,4016 Sun City Center Blvd,South Bay Hospital,Short Term Acute Care Hospital,Sun City Center,FL
752,12057,Florida,28.06564620000006,-82.42120809999994,12902 USF Magnolia Dr,Moffitt Cancer Center (AKA H Lee Moffitt Cancer Center & Research Institute),Short Term Acute Care Hospital,Tampa,FL
753,12057,Florida,28.06369150000006,-82.42865,13000 Bruce B Downs Blvd,James A Haley Veterans Hospital,VA Hospital,Tampa,FL
754,12059,Florida,30.760816,-85.683262,2600 Hospital Dr,Doctors Memorial Hospital,Critical Access Hospital,Bonifay,FL
755,12061,Florida,27.658355700000072,-80.39376429999999,1000 36th St,Cleveland Clinic Indian River Hospital (FKA Indian River Medical Center),Short Term Acute Care Hospital,Vero Beach,FL
756,12061,Florida,27.843529700000037,-80.48887529999996,13695 Us Highway 1,Sebastian River Medical Center,Short Term Acute Care Hospital,Sebastian,FL
757,12063,Florida,30.786751,-85.241891,4250 Hospital Dr,Jackson Hospital,Short Term Acute Care Hospital,Marianna,FL
758,12119,Florida,28.950209,-81.95826519999997,1451 El Camino Real,UF Health the Villages Hospital (FKA the Villages Regional Hospital),Short Term Acute Care Hospital,The Villages,FL
759,12069,Florida,28.80809480000005,-81.86831849999999,600 E Dixie Ave,UF Health Leesburg Hospital (FKA Leesburg Regional Medical Center),Short Term Acute Care Hospital,Leesburg,FL
760,12069,Florida,28.823794,-81.714703,1000 Waterman Way,AdventHealth Waterman (FKA Florida Hospital Waterman),Short Term Acute Care Hospital,Tavares,FL
761,12069,Florida,28.55218750000006,-81.72143259999996,1900 Don Wickham Dr,Orlando Health South Lake Hospital,Short Term Acute Care Hospital,Clermont,FL
762,12071,Florida,26.615871600000048,-81.65948279999998,1500 Lee Blvd,Lehigh Regional Medical Center,Short Term Acute Care Hospital,Lehigh Acres,FL
763,12071,Florida,26.628409300000044,-81.87408049999993,2776 Cleveland Ave,Lee Memorial Hospital,Short Term Acute Care Hospital,Fort Myers,FL
764,12071,Florida,26.5441,-81.8504,13681 Doctors Way,Gulf Coast Medical Center,Short Term Acute Care Hospital,Fort Myers,FL
765,12071,Florida,26.639437900000075,-81.943245,636 Del Prado Blvd,Cape Coral Hospital,Short Term Acute Care Hospital,Cape Coral,FL
766,12073,Florida,30.475990700000068,-84.231996,2626 Capital Medical Blvd,Capital Regional Medical Center,Short Term Acute Care Hospital,Tallahassee,FL
767,12073,Florida,30.45648740000007,-84.26162549999998,1300 Miccosukee Rd,Tallahassee Memorial HealthCare,Short Term Acute Care Hospital,Tallahassee,FL
768,12081,Florida,27.482857300000035,-82.62386529999998,2020 59th St W,Blake Medical Center,Short Term Acute Care Hospital,Bradenton,FL
769,12081,Florida,27.497326800000053,-82.562227,206 2nd St E,Manatee Memorial Hospital,Short Term Acute Care Hospital,Bradenton,FL
770,12081,Florida,27.390913,-82.435731,8330 Lakewood Ranch Blvd,Lakewood Ranch Medical Center,Short Term Acute Care Hospital,Bradenton,FL
771,12083,Florida,29.17517870000006,-82.13890009999994,1500 Sw 1st Ave,AdventHealth Ocala (FKA Munroe Regional Medical Center),Short Term Acute Care Hospital,Ocala,FL
772,12083,Florida,29.17550410000007,-82.13685229999999,1431 SW 1st Ave,Ocala Regional Medical Center,Short Term Acute Care Hospital,Ocala,FL
773,12085,Florida,27.19897080000004,-80.24354709999994,200 Se Hospital Ave,Cleveland Clinic Martin North Hospital (FKA Martin Medical Center),Short Term Acute Care Hospital,Stuart,FL
774,12086,Florida,25.812958300000048,-80.14140039999995,4300 Alton Rd,Mount Sinai Medical Center (FL),Short Term Acute Care Hospital,Miami Beach,FL
775,12086,Florida,25.8675,-80.3125,1475 W 49th Pl,Larkin Community Hospital - Palm Springs Campus (FKA Palm Springs General Hospital),Short Term Acute Care Hospital,Hialeah,FL
776,12086,Florida,25.860064,-80.214148,1100 Nw 95th St,North Shore Medical Center,Short Term Acute Care Hospital,Miami,FL
777,12086,Florida,25.792369800000078,-80.21322089999995,1611 Nw 12th Ave,Jackson Memorial Hospital,Short Term Acute Care Hospital,Miami,FL
778,12086,Florida,25.68314890000005,-80.34041449999995,8900 N Kendall Dr,Baptist Hospital,Short Term Acute Care Hospital,Miami,FL
779,12086,Florida,25.84568270000005,-80.26845889999998,651 E 25th St,Hialeah Hospital,Short Term Acute Care Hospital,Hialeah,FL
780,12086,Florida,25.78838370000005,-80.21448469999996,1475 Nw 12th Ave,Sylvester Comprehensive Cancer Center,Short Term Acute Care Hospital,Miami,FL
781,12086,Florida,25.73093460000007,-80.38614029999997,11750 SW 40th St,Kendall Regional Medical Center,Short Term Acute Care Hospital,Miami,FL
782,12086,Florida,25.705539200000032,-80.29314749999998,7031 Sw 62nd Ave,Larkin Community Hospital - South Miami Campus,Short Term Acute Care Hospital,South Miami,FL
783,12086,Florida,25.74342060000004,-80.25473989999995,3100 S Douglas Rd,Coral Gables Hospital,Short Term Acute Care Hospital,Coral Gables,FL
784,12086,Florida,25.88571170000006,-80.32643919999998,2001 W 68th St,Palmetto General Hospital,Short Term Acute Care Hospital,Hialeah,FL
785,12086,Florida,25.47922690000007,-80.43047519999999,975 Baptist Way,Homestead Hospital,Short Term Acute Care Hospital,Homestead,FL
786,12086,Florida,25.70350490000004,-80.29379779999994,6200 Sw 73rd St,South Miami Hospital,Short Term Acute Care Hospital,Miami,FL
787,12086,Florida,25.96997760000005,-80.14538019999998,20900 Biscayne Blvd,Aventura Hospital and Medical Center,Short Term Acute Care Hospital,Aventura,FL
788,12086,Florida,25.72429380000005,-80.27422089999999,5000 University Dr,Doctors Hospital,Short Term Acute Care Hospital,Coral Gables,FL
789,12086,Florida,25.791499800000054,-80.21629239999999,1201 Nw 16th St,Miami VA Healthcare System - Bruce W Carter VA Medical Center,VA Hospital,Miami,FL
790,12086,Florida,25.747314,-80.31765469999993,2500 Sw 75th Ave,Westchester General Hospital,Short Term Acute Care Hospital,Miami,FL
791,12086,Florida,25.82286780000004,-80.19243169999999,5200 Ne 2nd Ave,Douglas Gardens Hospital (AKA Miami Jewish Health Systems),Short Term Acute Care Hospital,Miami,FL
792,12087,Florida,24.580866800000024,-81.74255059999996,5900 College Rd,Lower Keys Medical Center,Short Term Acute Care Hospital,Key West,FL
793,12087,Florida,25.005957500000022,-80.52203459999998,91500 Overseas Hwy,Mariners Hospital,Critical Access Hospital,Tavernier,FL
794,12087,Florida,24.71020050000004,-81.09472669999997,3301 Overseas Hwy,Fishermens Community Hospital,Critical Access Hospital,Marathon,FL
795,12089,Florida,30.653144300000065,-81.44858439999996,1250 S 18th St,Baptist Medical Center Nassau,Short Term Acute Care Hospital,Fernandina Beach,FL
796,12091,Florida,30.735438100000067,-86.56231189999994,151 E Redstone Ave,North Okaloosa Medical Center,Short Term Acute Care Hospital,Crestview,FL
797,12091,Florida,30.45459770000008,-86.63353319999999,1000 Mar Walt Dr,Fort Walton Beach Medical Center,Short Term Acute Care Hospital,Fort Walton Beach,FL
798,12091,Florida,30.53354390000004,-86.49558459999997,2190 Highway 85 N,Twin Cities Hospital,Short Term Acute Care Hospital,Niceville,FL
799,12093,Florida,27.259774,-80.82848909999996,1796 US Highway 441 N,Raulerson Hospital,Short Term Acute Care Hospital,Okeechobee,FL
800,12095,Florida,28.52652470000004,-81.37760519999995,52 W Underwood St,Orlando Health Orlando Regional Medical Center,Short Term Acute Care Hospital,Orlando,FL
801,12095,Florida,28.574469900000054,-81.36954149999997,601 E Rollins St,AdventHealth Orlando (FKA Florida Hospital Orlando),Short Term Acute Care Hospital,Orlando,FL
802,12095,Florida,28.54983610000005,-81.52765759999994,10000 W Colonial Dr,Orlando Health - Health Central Hospital,Short Term Acute Care Hospital,Ocoee,FL
803,12097,Florida,28.29962310000008,-81.40973249999996,700 W Oak St,Osceola Regional Medical Center,Short Term Acute Care Hospital,Kissimmee,FL
804,12097,Florida,28.243114,-81.302787,2906 17th St,Orlando Health St Cloud Hospital (FKA St Cloud Regional Medical Center),Short Term Acute Care Hospital,Saint Cloud,FL
805,12099,Florida,26.437005800000065,-80.12767969999999,5352 Linton Blvd,Delray Medical Center,Short Term Acute Care Hospital,Delray Beach,FL
806,12099,Florida,26.82695970000003,-80.10567979999996,7305 N Military Trl,West Palm Beach VA Medical Center,VA Hospital,West Palm Beach,FL
807,12099,Florida,26.724889200000064,-80.05218259999998,1309 N Flagler Dr,Good Samaritan Medical Center,Short Term Acute Care Hospital,West Palm Beach,FL
808,12099,Florida,26.75580580000008,-80.062508,901 45th St,St Marys Medical Center,Short Term Acute Care Hospital,West Palm Beach,FL
809,12099,Florida,26.652301400000056,-80.20504059999996,10101 Forest Hill Blvd,Wellington Regional Medical Center,Short Term Acute Care Hospital,Wellington,FL
810,12099,Florida,26.3545,-80.2032,21644 State Road 7,West Boca Medical Center,Short Term Acute Care Hospital,Boca Raton,FL
811,12099,Florida,26.684219400000075,-80.25203549999998,13001 Southern Blvd,Palms West Hospital,Short Term Acute Care Hospital,Loxahatchee,FL
812,12099,Florida,26.724190300000032,-80.671271,39200 Hooker Hwy,Lakeside Medical Center,Short Term Acute Care Hospital,Belle Glade,FL
813,12099,Florida,26.358578300000037,-80.1022013,800 Meadows Rd,Boca Raton Regional Hospital,Short Term Acute Care Hospital,Boca Raton,FL
814,12099,Florida,26.82945670000004,-80.08684089999997,3360 Burns Rd,Palm Beach Gardens Medical Center,Short Term Acute Care Hospital,Palm Beach Gardens,FL
815,12099,Florida,26.92258590000006,-80.09646679999997,1210 S Old Dixie Hwy,Jupiter Medical Center,Short Term Acute Care Hospital,Jupiter,FL
816,12099,Florida,26.761936800000058,-80.08761229999999,2201 45th St,JFK Medical Center North Campus (FKA West Palm Hospital),Short Term Acute Care Hospital,West Palm Beach,FL
817,12099,Florida,26.50461960000007,-80.06976609999998,2815 S Seacrest Blvd,Bethesda Hospital East (FKA Bethesda Memorial Hospital),Short Term Acute Care Hospital,Boynton Beach,FL
818,12099,Florida,26.598604600000044,-80.09153879999997,5301 S Congress Ave,JFK Medical Center,Short Term Acute Care Hospital,Atlantis,FL
819,12101,Florida,28.26093,-82.18801489999998,7050 Gall Blvd,AdventHealth Zephyrhills (FKA Florida Hospital Zephyrhills),Short Term Acute Care Hospital,Zephyrhills,FL
820,12101,Florida,28.254315,-82.714474,6600 Madison St,Morton Plant North Bay Hospital,Short Term Acute Care Hospital,New Port Richey,FL
821,12101,Florida,28.203797,-82.65982729999996,9330 State Road 54,Medical Center of Trinity (FKA Community Hospital),Short Term Acute Care Hospital,Trinity,FL
822,12101,Florida,28.347899400000077,-82.20135079999994,13100 Fort King Rd,AdventHealth Dade City (FKA Florida Hospital Dade City),Short Term Acute Care Hospital,Dade City,FL
823,12101,Florida,28.36125030000005,-82.68818339999996,14000 Fivay Rd,Regional Medical Center Bayonet Point,Short Term Acute Care Hospital,Hudson,FL
824,12103,Florida,28.038029400000028,-82.70759379999998,3231 Mcmullen Booth Rd,Mease Countryside Hospital,Short Term Acute Care Hospital,Safety Harbor,FL
825,12103,Florida,27.825340700000027,-82.702445,6000 49th St N,Northside Hospital,Short Term Acute Care Hospital,St Petersburg,FL
826,12103,Florida,27.915014900000077,-82.80363729999993,201 14th St Sw,Largo Medical Center,Short Term Acute Care Hospital,Largo,FL
827,12103,Florida,27.815581200000054,-82.72010039999998,6500 38th Ave N,St Petersburg General Hospital,Short Term Acute Care Hospital,Kenneth City,FL
828,12103,Florida,27.752612,-82.73968719999993,1501 Pasadena Ave S,Palms of Pasadena Hospital,Short Term Acute Care Hospital,South Pasadena,FL
829,12103,Florida,27.95335680000005,-82.80287189999996,300 Pinellas St,Morton Plant Hospital,Short Term Acute Care Hospital,Clearwater,FL
